{
  "type": "FeatureCollection",
  "properties": {
    "review_only": true,
    "can_be_ground_truth": false
  },
  "features": [
    {
      "type": "Feature",
      "geometry": {
        "type": "Polygon",
        "coordinates": [
          [
            [
              -34.98938031645536,
              -8.227099689447009
            ],
            [
              -34.98039716361417,
              -8.227099689447009
            ],
            [
              -34.98039716361417,
              -8.218208885589318
            ],
            [
              -34.98938031645536,
              -8.218208885589318
            ],
            [
              -34.98938031645536,
              -8.227099689447009
            ]
          ]
        ]
      },
      "properties": {
        "patch_id": "recife_00019",
        "region": "recife",
        "review_only": true,
        "can_be_ground_truth": false
      }
    },
    {
      "type": "Feature",
      "geometry": {
        "type": "Polygon",
        "coordinates": [
          [
            [
              -34.95344770509058,
              -8.129289922403812
            ],
            [
              -34.944464552249386,
              -8.129289922403812
            ],
            [
              -34.944464552249386,
              -8.120396938238713
            ],
            [
              -34.95344770509058,
              -8.120396938238713
            ],
            [
              -34.95344770509058,
              -8.129289922403812
            ]
          ]
        ]
      },
      "properties": {
        "patch_id": "recife_00276",
        "region": "recife",
        "review_only": true,
        "can_be_ground_truth": false
      }
    },
    {
      "type": "Feature",
      "geometry": {
        "type": "Polygon",
        "coordinates": [
          [
            [
              -34.96243085793177,
              -8.147075299041528
            ],
            [
              -34.95344770509058,
              -8.147075299041528
            ],
            [
              -34.95344770509058,
              -8.13818270940803
            ],
            [
              -34.96243085793177,
              -8.13818270940803
            ],
            [
              -34.96243085793177,
              -8.147075299041528
            ]
          ]
        ]
      },
      "properties": {
        "patch_id": "recife_00229",
        "region": "recife",
        "review_only": true,
        "can_be_ground_truth": false
      }
    },
    {
      "type": "Feature",
      "geometry": {
        "type": "Polygon",
        "coordinates": [
          [
            [
              -34.95344770509058,
              -8.120396938238713
            ],
            [
              -34.944464552249386,
              -8.120396938238713
            ],
            [
              -34.944464552249386,
              -8.111503757122588
            ],
            [
              -34.95344770509058,
              -8.111503757122588
            ],
            [
              -34.95344770509058,
              -8.120396938238713
            ]
          ]
        ]
      },
      "properties": {
        "patch_id": "recife_00299",
        "region": "recife",
        "review_only": true,
        "can_be_ground_truth": false
      }
    },
    {
      "type": "Feature",
      "geometry": {
        "type": "Polygon",
        "coordinates": [
          [
            [
              -34.95344770509058,
              -8.111503757122588
            ],
            [
              -34.944464552249386,
              -8.111503757122588
            ],
            [
              -34.944464552249386,
              -8.102610379265364
            ],
            [
              -34.95344770509058,
              -8.102610379265364
            ],
            [
              -34.95344770509058,
              -8.111503757122588
            ]
          ]
        ]
      },
      "properties": {
        "patch_id": "recife_00322",
        "region": "recife",
        "review_only": true,
        "can_be_ground_truth": false
      }
    },
    {
      "type": "Feature",
      "geometry": {
        "type": "Polygon",
        "coordinates": [
          [
            [
              -43.208965166148985,
              -22.49449702929361
            ],
            [
              -43.19998201330779,
              -22.49449702929361
            ],
            [
              -43.19998201330779,
              -22.486197099204848
            ],
            [
              -43.208965166148985,
              -22.486197099204848
            ],
            [
              -43.208965166148985,
              -22.49449702929361
            ]
          ]
        ]
      },
      "properties": {
        "patch_id": "petropolis_00467",
        "region": "petropolis",
        "review_only": true,
        "can_be_ground_truth": false
      }
    }
  ]
}
