{
  "type": "FeatureCollection",
  "name": "flood_vector_compact_curitiba_2022_01_15",
  "metadata": {
    "candidate_event_id": "S17C_REF_0060",
    "evento_publico": "CUR_2022_01_15",
    "compact_method": "compact_vector_by_patch",
    "feature_count": 2,
    "max_feature_limit": 43,
    "area_total_m2": 51829.265380859375,
    "crs": "EPSG:4326",
    "uso_permitido": "footprint_tecnico_sar_somente_revisao",
    "geometria_oficial_de_ocorrencia": false,
    "ground_truth": false,
    "eligible_for_training": false,
    "score_v7_allowed": false,
    "review_only": true,
    "limitations": "geometria agregada por patch com area SAR detectada; nao e limite exato da mancha d'agua"
  },
  "features": [
    {
      "type": "Feature",
      "geometry": {
        "geodesic": false,
        "type": "Polygon",
        "coordinates": [
          [
            [
              -49.102042088440726,
              -25.3681594902125
            ],
            [
              -49.09260463424011,
              -25.36803745423006
            ],
            [
              -49.09273783948342,
              -25.35955336899339
            ],
            [
              -49.10217463557493,
              -25.35967535848711
            ],
            [
              -49.102042088440726,
              -25.3681594902125
            ]
          ]
        ]
      },
      "id": "36",
      "properties": {
        "candidate_event_id": "S17C_REF_0060",
        "compact_method": "compact_vector_by_patch",
        "eligible_for_training": false,
        "evento_publico": "CUR_2022_01_15",
        "ground_truth": false,
        "min_connected_pixels": 6,
        "patch_id": "CUR_01050",
        "review_only": true,
        "scale_m": 60,
        "score_v7_allowed": false,
        "sum": 25912.584716796875,
        "threshold": "delta_vv<-1.5_and_delta_vh<-1.5",
        "area_detectada_m2": 25912.584716796875,
        "uso_permitido": "footprint_tecnico_sar_somente_revisao",
        "geometria_oficial_de_ocorrencia": false
      }
    },
    {
      "type": "Feature",
      "geometry": {
        "geodesic": false,
        "type": "Polygon",
        "coordinates": [
          [
            [
              -49.27278305153019,
              -25.35193588982279
            ],
            [
              -49.263345960237956,
              -25.351824867649526
            ],
            [
              -49.26346715677322,
              -25.34333995587611
            ],
            [
              -49.272903590275845,
              -25.34345093573242
            ],
            [
              -49.27278305153019,
              -25.35193588982279
            ]
          ]
        ]
      },
      "id": "40",
      "properties": {
        "candidate_event_id": "S17C_REF_0060",
        "compact_method": "compact_vector_by_patch",
        "eligible_for_training": false,
        "evento_publico": "CUR_2022_01_15",
        "ground_truth": false,
        "min_connected_pixels": 6,
        "patch_id": "CUR_01101",
        "review_only": true,
        "scale_m": 60,
        "score_v7_allowed": false,
        "sum": 25916.6806640625,
        "threshold": "delta_vv<-1.5_and_delta_vh<-1.5",
        "area_detectada_m2": 25916.6806640625,
        "uso_permitido": "footprint_tecnico_sar_somente_revisao",
        "geometria_oficial_de_ocorrencia": false
      }
    }
  ]
}
