{
  "type": "FeatureCollection",
  "metadata": {
    "milestone": "SUSC-17C5",
    "review_only": true,
    "ground_truth": false,
    "eligible_for_training": false,
    "score_v7_allowed": false,
    "feature_count": 5
  },
  "features": [
    {
      "type": "Feature",
      "geometry": {
        "type": "Polygon",
        "coordinates": [
          [
            [
              -34.944464634,
              -7.995866764
            ],
            [
              -34.935481481,
              -7.995866764
            ],
            [
              -34.935481481,
              -7.986973178
            ],
            [
              -34.944464634,
              -7.986973178
            ],
            [
              -34.944464634,
              -7.995866764
            ]
          ]
        ]
      },
      "properties": {
        "patch_link_id": "S17C5_LINK_00063",
        "candidate_event_id": "S17C_REF_0063",
        "geometry_id": "S17C5_GEOM_0063",
        "patch_id": "S17C6_CANARY_REC_00002",
        "patch_namespace": "susc_17c6_canary_patch_review_only",
        "link_class": "exact_polygon_overlap",
        "strong_link_candidate": true,
        "review_only": true,
        "ground_truth": false,
        "eligible_for_training": false,
        "score_v7_allowed": false
      }
    },
    {
      "type": "Feature",
      "geometry": {
        "type": "Polygon",
        "coordinates": [
          [
            [
              -34.944464634,
              -8.00476035
            ],
            [
              -34.935481481,
              -8.00476035
            ],
            [
              -34.935481481,
              -7.995866764
            ],
            [
              -34.944464634,
              -7.995866764
            ],
            [
              -34.944464634,
              -8.00476035
            ]
          ]
        ]
      },
      "properties": {
        "patch_link_id": "S17C5_LINK_00064",
        "candidate_event_id": "S17C_REF_0063",
        "geometry_id": "S17C5_GEOM_0063",
        "patch_id": "S17C6_CANARY_REC_00001",
        "patch_namespace": "susc_17c6_canary_patch_review_only",
        "link_class": "exact_polygon_overlap",
        "strong_link_candidate": true,
        "review_only": true,
        "ground_truth": false,
        "eligible_for_training": false,
        "score_v7_allowed": false
      }
    },
    {
      "type": "Feature",
      "geometry": {
        "type": "Polygon",
        "coordinates": [
          [
            [
              -34.926498328,
              -7.995866764
            ],
            [
              -34.917515175,
              -7.995866764
            ],
            [
              -34.917515175,
              -7.986973178
            ],
            [
              -34.926498328,
              -7.986973178
            ],
            [
              -34.926498328,
              -7.995866764
            ]
          ]
        ]
      },
      "properties": {
        "patch_link_id": "S17C5_LINK_00065",
        "candidate_event_id": "S17C_REF_0063",
        "geometry_id": "S17C5_GEOM_0063",
        "patch_id": "S17C6_CANARY_REC_00003",
        "patch_namespace": "susc_17c6_canary_patch_review_only",
        "link_class": "exact_polygon_overlap",
        "strong_link_candidate": true,
        "review_only": true,
        "ground_truth": false,
        "eligible_for_training": false,
        "score_v7_allowed": false
      }
    },
    {
      "type": "Feature",
      "geometry": {
        "type": "Polygon",
        "coordinates": [
          [
            [
              -34.935481481,
              -7.986973178
            ],
            [
              -34.926498328,
              -7.986973178
            ],
            [
              -34.926498328,
              -7.978079592
            ],
            [
              -34.935481481,
              -7.978079592
            ],
            [
              -34.935481481,
              -7.986973178
            ]
          ]
        ]
      },
      "properties": {
        "patch_link_id": "S17C5_LINK_00066",
        "candidate_event_id": "S17C_REF_0063",
        "geometry_id": "S17C5_GEOM_0063",
        "patch_id": "S17C6_CANARY_REC_00004",
        "patch_namespace": "susc_17c6_canary_patch_review_only",
        "link_class": "exact_polygon_overlap",
        "strong_link_candidate": true,
        "review_only": true,
        "ground_truth": false,
        "eligible_for_training": false,
        "score_v7_allowed": false
      }
    },
    {
      "type": "Feature",
      "geometry": {
        "type": "Polygon",
        "coordinates": [
          [
            [
              -34.926498328,
              -7.986973178
            ],
            [
              -34.917515175,
              -7.986973178
            ],
            [
              -34.917515175,
              -7.978079592
            ],
            [
              -34.926498328,
              -7.978079592
            ],
            [
              -34.926498328,
              -7.986973178
            ]
          ]
        ]
      },
      "properties": {
        "patch_link_id": "S17C5_LINK_00067",
        "candidate_event_id": "S17C_REF_0063",
        "geometry_id": "S17C5_GEOM_0063",
        "patch_id": "S17C6_CANARY_REC_00005",
        "patch_namespace": "susc_17c6_canary_patch_review_only",
        "link_class": "exact_polygon_overlap",
        "strong_link_candidate": true,
        "review_only": true,
        "ground_truth": false,
        "eligible_for_training": false,
        "score_v7_allowed": false
      }
    }
  ]
}
