{
  "type": "FeatureCollection",
  "name": "susc_13b_auto_event_patch_linkage",
  "crs": {
    "type": "name",
    "properties": {
      "name": "urn:ogc:def:crs:OGC:1.3:CRS84"
    }
  },
  "review_only": true,
  "can_be_ground_truth": false,
  "allowed_for_training": false,
  "features": [
    {
      "type": "Feature",
      "geometry": {
        "type": "Point",
        "coordinates": [
          -43.213457,
          -22.53184
        ]
      },
      "properties": {
        "linkage_id": "S13BLINK_00005",
        "event_id": "SUSC13BC_00006",
        "patch_id": "petropolis_00291",
        "region": "petropolis",
        "evidence_level": "moderate_official_occurrence_point",
        "spatial_relation": "near_patch_buffer_candidate",
        "linkage_confidence": "weak",
        "can_be_used_for_observational_evaluation": "true",
        "can_be_ground_truth": "false",
        "allowed_for_training": "false",
        "review_only": "true"
      }
    },
    {
      "type": "Feature",
      "geometry": {
        "type": "Point",
        "coordinates": [
          -43.204474,
          -22.53184
        ]
      },
      "properties": {
        "linkage_id": "S13BLINK_00006",
        "event_id": "SUSC13BC_00006",
        "patch_id": "petropolis_00292",
        "region": "petropolis",
        "evidence_level": "moderate_official_occurrence_point",
        "spatial_relation": "near_patch_buffer_candidate",
        "linkage_confidence": "weak",
        "can_be_used_for_observational_evaluation": "true",
        "can_be_ground_truth": "false",
        "allowed_for_training": "false",
        "review_only": "true"
      }
    },
    {
      "type": "Feature",
      "geometry": {
        "type": "Point",
        "coordinates": [
          -43.19549,
          -22.53184
        ]
      },
      "properties": {
        "linkage_id": "S13BLINK_00007",
        "event_id": "SUSC13BC_00006",
        "patch_id": "petropolis_00293",
        "region": "petropolis",
        "evidence_level": "moderate_official_occurrence_point",
        "spatial_relation": "near_patch_buffer_candidate",
        "linkage_confidence": "weak",
        "can_be_used_for_observational_evaluation": "true",
        "can_be_ground_truth": "false",
        "allowed_for_training": "false",
        "review_only": "true"
      }
    },
    {
      "type": "Feature",
      "geometry": {
        "type": "Point",
        "coordinates": [
          -43.213457,
          -22.523543
        ]
      },
      "properties": {
        "linkage_id": "S13BLINK_00008",
        "event_id": "SUSC13BC_00006",
        "patch_id": "petropolis_00326",
        "region": "petropolis",
        "evidence_level": "moderate_official_occurrence_point",
        "spatial_relation": "near_patch_buffer_candidate",
        "linkage_confidence": "weak",
        "can_be_used_for_observational_evaluation": "true",
        "can_be_ground_truth": "false",
        "allowed_for_training": "false",
        "review_only": "true"
      }
    },
    {
      "type": "Feature",
      "geometry": {
        "type": "Point",
        "coordinates": [
          -43.213457,
          -22.515245
        ]
      },
      "properties": {
        "linkage_id": "S13BLINK_00009",
        "event_id": "SUSC13BC_00006",
        "patch_id": "petropolis_00361",
        "region": "petropolis",
        "evidence_level": "moderate_official_occurrence_point",
        "spatial_relation": "near_patch_buffer_candidate",
        "linkage_confidence": "weak",
        "can_be_used_for_observational_evaluation": "true",
        "can_be_ground_truth": "false",
        "allowed_for_training": "false",
        "review_only": "true"
      }
    },
    {
      "type": "Feature",
      "geometry": {
        "type": "Point",
        "coordinates": [
          -43.204474,
          -22.515245
        ]
      },
      "properties": {
        "linkage_id": "S13BLINK_00010",
        "event_id": "SUSC13BC_00006",
        "patch_id": "petropolis_00362",
        "region": "petropolis",
        "evidence_level": "moderate_official_occurrence_point",
        "spatial_relation": "near_patch_buffer_candidate",
        "linkage_confidence": "weak",
        "can_be_used_for_observational_evaluation": "true",
        "can_be_ground_truth": "false",
        "allowed_for_training": "false",
        "review_only": "true"
      }
    },
    {
      "type": "Feature",
      "geometry": {
        "type": "Point",
        "coordinates": [
          -43.204474,
          -22.490347
        ]
      },
      "properties": {
        "linkage_id": "S13BLINK_00011",
        "event_id": "SUSC13BC_00006",
        "patch_id": "petropolis_00467",
        "region": "petropolis",
        "evidence_level": "moderate_official_occurrence_point",
        "spatial_relation": "near_patch_buffer_candidate",
        "linkage_confidence": "weak",
        "can_be_used_for_observational_evaluation": "true",
        "can_be_ground_truth": "false",
        "allowed_for_training": "false",
        "review_only": "true"
      }
    }
  ]
}
