{
  "type": "FeatureCollection",
  "metadata": {
    "protocol": "susc_17c2_candidate_footprints",
    "review_only": true,
    "ground_truth": false,
    "footprint_count": 1,
    "note": "Footprints candidatos review-only. Nenhum raster bruto. Execucoes bloqueadas nao geram geometria.",
    "blocked_executions": [
      "EXEC_S17C_W_S16AWIN_00003",
      "EXEC_S17C_W_S16AWIN_00004",
      "EXEC_S17C_W_S16AWIN_00005",
      "EXEC_S17C_W_S16AWIN_00006"
    ]
  },
  "features": [
    {
      "type": "Feature",
      "geometry": {
        "type": "Polygon",
        "coordinates": [
          [
            [
              -34.941752,
              -8.001308
            ],
            [
              -34.920971,
              -8.001308
            ],
            [
              -34.920971,
              -7.981592
            ],
            [
              -34.941752,
              -7.981592
            ],
            [
              -34.941752,
              -8.001308
            ]
          ]
        ]
      },
      "properties": {
        "candidate_footprint_id": "S17C2_FP_S17C_E_SUSC13A_00001",
        "candidate_event_id": "S17C_E_SUSC13A_00001",
        "event_date": "2022-05-24",
        "evidence_class": "technical_remote_sensing_flood_footprint_candidate",
        "qa_status": "needs_review",
        "ground_truth": false,
        "review_only": true,
        "annotation_method": "official_charter_flood_extent_bbox_materialized_no_raster",
        "uncertainty_m": "not_available",
        "not_ground_truth_reason": "technical_sar_or_official_flood_footprint_candidate_is_review_evidence_not_ground_truth"
      }
    }
  ]
}
