{
  "type": "FeatureCollection",
  "features": [
    {
      "type": "Feature",
      "geometry": {
        "type": "Point",
        "coordinates": [
          -49.38488274447069,
          -25.590901953073324
        ]
      },
      "properties": {
        "linkage_id": "S16ALINK_000003",
        "footprint_id": "S16AFP_00003",
        "event_id": "S16ALOCG_00003",
        "patch_id": "curitiba_00038",
        "region": "curitiba",
        "event_date": "",
        "footprint_type": "official_flood_footprint",
        "spatial_relation": "footprint_polygon_covers_patch",
        "overlap_ratio": "1.0",
        "distance_m": "",
        "score_v6": "0.471344",
        "score_v6_class": "medium",
        "evidence_strength": "moderate_candidate",
        "eligible_for_observational_evaluation": "true",
        "can_be_ground_truth": "false",
        "allowed_for_training": "false",
        "review_only": "true",
        "interpretation": "Vinculo espacial footprint-patch para avaliacao observacional review-only.",
        "limitations": "sem data explicita extraida; elegibilidade permanece candidata review-only"
      }
    },
    {
      "type": "Feature",
      "geometry": {
        "type": "Point",
        "coordinates": [
          -49.38488274447069,
          -25.58279976310865
        ]
      },
      "properties": {
        "linkage_id": "S16ALINK_000004",
        "footprint_id": "S16AFP_00003",
        "event_id": "S16ALOCG_00003",
        "patch_id": "curitiba_00073",
        "region": "curitiba",
        "event_date": "",
        "footprint_type": "official_flood_footprint",
        "spatial_relation": "footprint_polygon_covers_patch",
        "overlap_ratio": "1.0",
        "distance_m": "",
        "score_v6": "0.482868",
        "score_v6_class": "medium",
        "evidence_strength": "moderate_candidate",
        "eligible_for_observational_evaluation": "true",
        "can_be_ground_truth": "false",
        "allowed_for_training": "false",
        "review_only": "true",
        "interpretation": "Vinculo espacial footprint-patch para avaliacao observacional review-only.",
        "limitations": "sem data explicita extraida; elegibilidade permanece candidata review-only"
      }
    },
    {
      "type": "Feature",
      "geometry": {
        "type": "Point",
        "coordinates": [
          -49.20521968764679,
          -25.566593737636115
        ]
      },
      "properties": {
        "linkage_id": "S16ALINK_000005",
        "footprint_id": "S16AFP_00003",
        "event_id": "S16ALOCG_00003",
        "patch_id": "curitiba_00163",
        "region": "curitiba",
        "event_date": "",
        "footprint_type": "official_flood_footprint",
        "spatial_relation": "footprint_polygon_covers_patch",
        "overlap_ratio": "1.0",
        "distance_m": "",
        "score_v6": "0.416689",
        "score_v6_class": "low",
        "evidence_strength": "moderate_candidate",
        "eligible_for_observational_evaluation": "true",
        "can_be_ground_truth": "false",
        "allowed_for_training": "false",
        "review_only": "true",
        "interpretation": "Vinculo espacial footprint-patch para avaliacao observacional review-only.",
        "limitations": "sem data explicita extraida; elegibilidade permanece candidata review-only"
      }
    },
    {
      "type": "Feature",
      "geometry": {
        "type": "Point",
        "coordinates": [
          -49.38488274447069,
          -25.590901953073324
        ]
      },
      "properties": {
        "linkage_id": "S16ALINK_000108",
        "footprint_id": "S16AFP_00106",
        "event_id": "S16ALOCG_00106",
        "patch_id": "curitiba_00038",
        "region": "curitiba",
        "event_date": "",
        "footprint_type": "official_flood_footprint",
        "spatial_relation": "footprint_polygon_covers_patch",
        "overlap_ratio": "1.0",
        "distance_m": "",
        "score_v6": "0.471344",
        "score_v6_class": "medium",
        "evidence_strength": "moderate_candidate",
        "eligible_for_observational_evaluation": "true",
        "can_be_ground_truth": "false",
        "allowed_for_training": "false",
        "review_only": "true",
        "interpretation": "Vinculo espacial footprint-patch para avaliacao observacional review-only.",
        "limitations": "sem data explicita extraida; elegibilidade permanece candidata review-only"
      }
    },
    {
      "type": "Feature",
      "geometry": {
        "type": "Point",
        "coordinates": [
          -49.38488274447069,
          -25.58279976310865
        ]
      },
      "properties": {
        "linkage_id": "S16ALINK_000109",
        "footprint_id": "S16AFP_00106",
        "event_id": "S16ALOCG_00106",
        "patch_id": "curitiba_00073",
        "region": "curitiba",
        "event_date": "",
        "footprint_type": "official_flood_footprint",
        "spatial_relation": "footprint_polygon_covers_patch",
        "overlap_ratio": "1.0",
        "distance_m": "",
        "score_v6": "0.482868",
        "score_v6_class": "medium",
        "evidence_strength": "moderate_candidate",
        "eligible_for_observational_evaluation": "true",
        "can_be_ground_truth": "false",
        "allowed_for_training": "false",
        "review_only": "true",
        "interpretation": "Vinculo espacial footprint-patch para avaliacao observacional review-only.",
        "limitations": "sem data explicita extraida; elegibilidade permanece candidata review-only"
      }
    },
    {
      "type": "Feature",
      "geometry": {
        "type": "Point",
        "coordinates": [
          -49.20521968764679,
          -25.566593737636115
        ]
      },
      "properties": {
        "linkage_id": "S16ALINK_000110",
        "footprint_id": "S16AFP_00106",
        "event_id": "S16ALOCG_00106",
        "patch_id": "curitiba_00163",
        "region": "curitiba",
        "event_date": "",
        "footprint_type": "official_flood_footprint",
        "spatial_relation": "footprint_polygon_covers_patch",
        "overlap_ratio": "1.0",
        "distance_m": "",
        "score_v6": "0.416689",
        "score_v6_class": "low",
        "evidence_strength": "moderate_candidate",
        "eligible_for_observational_evaluation": "true",
        "can_be_ground_truth": "false",
        "allowed_for_training": "false",
        "review_only": "true",
        "interpretation": "Vinculo espacial footprint-patch para avaliacao observacional review-only.",
        "limitations": "sem data explicita extraida; elegibilidade permanece candidata review-only"
      }
    },
    {
      "type": "Feature",
      "geometry": {
        "type": "Point",
        "coordinates": [
          -49.3758995916295,
          -25.54228058744397
        ]
      },
      "properties": {
        "linkage_id": "S16ALINK_000111",
        "footprint_id": "S16AFP_00106",
        "event_id": "S16ALOCG_00106",
        "patch_id": "curitiba_00249",
        "region": "curitiba",
        "event_date": "",
        "footprint_type": "official_flood_footprint",
        "spatial_relation": "footprint_polygon_covers_patch",
        "overlap_ratio": "1.0",
        "distance_m": "",
        "score_v6": "0.434532",
        "score_v6_class": "medium",
        "evidence_strength": "moderate_candidate",
        "eligible_for_observational_evaluation": "true",
        "can_be_ground_truth": "false",
        "allowed_for_training": "false",
        "review_only": "true",
        "interpretation": "Vinculo espacial footprint-patch para avaliacao observacional review-only.",
        "limitations": "sem data explicita extraida; elegibilidade permanece candidata review-only"
      }
    },
    {
      "type": "Feature",
      "geometry": {
        "type": "Point",
        "coordinates": [
          -49.33098382742352,
          -25.53417510801797
        ]
      },
      "properties": {
        "linkage_id": "S16ALINK_000112",
        "footprint_id": "S16AFP_00106",
        "event_id": "S16ALOCG_00106",
        "patch_id": "curitiba_00289",
        "region": "curitiba",
        "event_date": "",
        "footprint_type": "official_flood_footprint",
        "spatial_relation": "footprint_polygon_covers_patch",
        "overlap_ratio": "1.0",
        "distance_m": "",
        "score_v6": "0.47547",
        "score_v6_class": "medium",
        "evidence_strength": "moderate_candidate",
        "eligible_for_observational_evaluation": "true",
        "can_be_ground_truth": "false",
        "allowed_for_training": "false",
        "review_only": "true",
        "interpretation": "Vinculo espacial footprint-patch para avaliacao observacional review-only.",
        "limitations": "sem data explicita extraida; elegibilidade permanece candidata review-only"
      }
    },
    {
      "type": "Feature",
      "geometry": {
        "type": "Point",
        "coordinates": [
          -49.29505121605874,
          -25.53417510801797
        ]
      },
      "properties": {
        "linkage_id": "S16ALINK_000113",
        "footprint_id": "S16AFP_00106",
        "event_id": "S16ALOCG_00106",
        "patch_id": "curitiba_00293",
        "region": "curitiba",
        "event_date": "",
        "footprint_type": "official_flood_footprint",
        "spatial_relation": "footprint_polygon_covers_patch",
        "overlap_ratio": "1.0",
        "distance_m": "",
        "score_v6": "0.365446",
        "score_v6_class": "low",
        "evidence_strength": "moderate_candidate",
        "eligible_for_observational_evaluation": "true",
        "can_be_ground_truth": "false",
        "allowed_for_training": "false",
        "review_only": "true",
        "interpretation": "Vinculo espacial footprint-patch para avaliacao observacional review-only.",
        "limitations": "sem data explicita extraida; elegibilidade permanece candidata review-only"
      }
    },
    {
      "type": "Feature",
      "geometry": {
        "type": "Point",
        "coordinates": [
          -49.187253381964396,
          -25.53417510801797
        ]
      },
      "properties": {
        "linkage_id": "S16ALINK_000114",
        "footprint_id": "S16AFP_00106",
        "event_id": "S16ALOCG_00106",
        "patch_id": "curitiba_00305",
        "region": "curitiba",
        "event_date": "",
        "footprint_type": "official_flood_footprint",
        "spatial_relation": "footprint_polygon_intersects_patch",
        "overlap_ratio": "0.740341",
        "distance_m": "",
        "score_v6": "0.595185",
        "score_v6_class": "medium",
        "evidence_strength": "moderate_candidate",
        "eligible_for_observational_evaluation": "true",
        "can_be_ground_truth": "false",
        "allowed_for_training": "false",
        "review_only": "true",
        "interpretation": "Vinculo espacial footprint-patch para avaliacao observacional review-only.",
        "limitations": "sem data explicita extraida; elegibilidade permanece candidata review-only"
      }
    },
    {
      "type": "Feature",
      "geometry": {
        "type": "Point",
        "coordinates": [
          -49.19623653480559,
          -25.526069080786236
        ]
      },
      "properties": {
        "linkage_id": "S16ALINK_000115",
        "footprint_id": "S16AFP_00106",
        "event_id": "S16ALOCG_00106",
        "patch_id": "curitiba_00339",
        "region": "curitiba",
        "event_date": "",
        "footprint_type": "official_flood_footprint",
        "spatial_relation": "footprint_polygon_covers_patch",
        "overlap_ratio": "1.0",
        "distance_m": "",
        "score_v6": "0.602212",
        "score_v6_class": "medium",
        "evidence_strength": "moderate_candidate",
        "eligible_for_observational_evaluation": "true",
        "can_be_ground_truth": "false",
        "allowed_for_training": "false",
        "review_only": "true",
        "interpretation": "Vinculo espacial footprint-patch para avaliacao observacional review-only.",
        "limitations": "sem data explicita extraida; elegibilidade permanece candidata review-only"
      }
    },
    {
      "type": "Feature",
      "geometry": {
        "type": "Point",
        "coordinates": [
          -49.187253381964396,
          -25.526069080786236
        ]
      },
      "properties": {
        "linkage_id": "S16ALINK_000116",
        "footprint_id": "S16AFP_00106",
        "event_id": "S16ALOCG_00106",
        "patch_id": "curitiba_00340",
        "region": "curitiba",
        "event_date": "",
        "footprint_type": "official_flood_footprint",
        "spatial_relation": "footprint_polygon_intersects_patch",
        "overlap_ratio": "0.740341",
        "distance_m": "",
        "score_v6": "0.574688",
        "score_v6_class": "medium",
        "evidence_strength": "moderate_candidate",
        "eligible_for_observational_evaluation": "true",
        "can_be_ground_truth": "false",
        "allowed_for_training": "false",
        "review_only": "true",
        "interpretation": "Vinculo espacial footprint-patch para avaliacao observacional review-only.",
        "limitations": "sem data explicita extraida; elegibilidade permanece candidata review-only"
      }
    },
    {
      "type": "Feature",
      "geometry": {
        "type": "Point",
        "coordinates": [
          -49.348950133105916,
          -25.517962505874014
        ]
      },
      "properties": {
        "linkage_id": "S16ALINK_000117",
        "footprint_id": "S16AFP_00106",
        "event_id": "S16ALOCG_00106",
        "patch_id": "curitiba_00357",
        "region": "curitiba",
        "event_date": "",
        "footprint_type": "official_flood_footprint",
        "spatial_relation": "footprint_polygon_covers_patch",
        "overlap_ratio": "1.0",
        "distance_m": "",
        "score_v6": "0.389662",
        "score_v6_class": "low",
        "evidence_strength": "moderate_candidate",
        "eligible_for_observational_evaluation": "true",
        "can_be_ground_truth": "false",
        "allowed_for_training": "false",
        "review_only": "true",
        "interpretation": "Vinculo espacial footprint-patch para avaliacao observacional review-only.",
        "limitations": "sem data explicita extraida; elegibilidade permanece candidata review-only"
      }
    },
    {
      "type": "Feature",
      "geometry": {
        "type": "Point",
        "coordinates": [
          -49.27708491037635,
          -25.517962505874014
        ]
      },
      "properties": {
        "linkage_id": "S16ALINK_000118",
        "footprint_id": "S16AFP_00106",
        "event_id": "S16ALOCG_00106",
        "patch_id": "curitiba_00365",
        "region": "curitiba",
        "event_date": "",
        "footprint_type": "official_flood_footprint",
        "spatial_relation": "footprint_polygon_covers_patch",
        "overlap_ratio": "1.0",
        "distance_m": "",
        "score_v6": "0.366098",
        "score_v6_class": "low",
        "evidence_strength": "moderate_candidate",
        "eligible_for_observational_evaluation": "true",
        "can_be_ground_truth": "false",
        "allowed_for_training": "false",
        "review_only": "true",
        "interpretation": "Vinculo espacial footprint-patch para avaliacao observacional review-only.",
        "limitations": "sem data explicita extraida; elegibilidade permanece candidata review-only"
      }
    },
    {
      "type": "Feature",
      "geometry": {
        "type": "Point",
        "coordinates": [
          -49.25911860469396,
          -25.517962505874014
        ]
      },
      "properties": {
        "linkage_id": "S16ALINK_000119",
        "footprint_id": "S16AFP_00106",
        "event_id": "S16ALOCG_00106",
        "patch_id": "curitiba_00367",
        "region": "curitiba",
        "event_date": "",
        "footprint_type": "official_flood_footprint",
        "spatial_relation": "footprint_polygon_covers_patch",
        "overlap_ratio": "1.0",
        "distance_m": "",
        "score_v6": "0.407342",
        "score_v6_class": "low",
        "evidence_strength": "moderate_candidate",
        "eligible_for_observational_evaluation": "true",
        "can_be_ground_truth": "false",
        "allowed_for_training": "false",
        "review_only": "true",
        "interpretation": "Vinculo espacial footprint-patch para avaliacao observacional review-only.",
        "limitations": "sem data explicita extraida; elegibilidade permanece candidata review-only"
      }
    },
    {
      "type": "Feature",
      "geometry": {
        "type": "Point",
        "coordinates": [
          -49.19623653480559,
          -25.517962505874014
        ]
      },
      "properties": {
        "linkage_id": "S16ALINK_000120",
        "footprint_id": "S16AFP_00106",
        "event_id": "S16ALOCG_00106",
        "patch_id": "curitiba_00374",
        "region": "curitiba",
        "event_date": "",
        "footprint_type": "official_flood_footprint",
        "spatial_relation": "footprint_polygon_covers_patch",
        "overlap_ratio": "1.0",
        "distance_m": "",
        "score_v6": "0.642256",
        "score_v6_class": "high",
        "evidence_strength": "moderate_candidate",
        "eligible_for_observational_evaluation": "true",
        "can_be_ground_truth": "false",
        "allowed_for_training": "false",
        "review_only": "true",
        "interpretation": "Vinculo espacial footprint-patch para avaliacao observacional review-only.",
        "limitations": "sem data explicita extraida; elegibilidade permanece candidata review-only"
      }
    },
    {
      "type": "Feature",
      "geometry": {
        "type": "Point",
        "coordinates": [
          -49.348950133105916,
          -25.50985538340661
        ]
      },
      "properties": {
        "linkage_id": "S16ALINK_000121",
        "footprint_id": "S16AFP_00106",
        "event_id": "S16ALOCG_00106",
        "patch_id": "curitiba_00392",
        "region": "curitiba",
        "event_date": "",
        "footprint_type": "official_flood_footprint",
        "spatial_relation": "footprint_polygon_covers_patch",
        "overlap_ratio": "1.0",
        "distance_m": "",
        "score_v6": "0.367297",
        "score_v6_class": "low",
        "evidence_strength": "moderate_candidate",
        "eligible_for_observational_evaluation": "true",
        "can_be_ground_truth": "false",
        "allowed_for_training": "false",
        "review_only": "true",
        "interpretation": "Vinculo espacial footprint-patch para avaliacao observacional review-only.",
        "limitations": "sem data explicita extraida; elegibilidade permanece candidata review-only"
      }
    },
    {
      "type": "Feature",
      "geometry": {
        "type": "Point",
        "coordinates": [
          -49.28606806321754,
          -25.50985538340661
        ]
      },
      "properties": {
        "linkage_id": "S16ALINK_000122",
        "footprint_id": "S16AFP_00106",
        "event_id": "S16ALOCG_00106",
        "patch_id": "curitiba_00399",
        "region": "curitiba",
        "event_date": "",
        "footprint_type": "official_flood_footprint",
        "spatial_relation": "footprint_polygon_covers_patch",
        "overlap_ratio": "1.0",
        "distance_m": "",
        "score_v6": "0.384378",
        "score_v6_class": "low",
        "evidence_strength": "moderate_candidate",
        "eligible_for_observational_evaluation": "true",
        "can_be_ground_truth": "false",
        "allowed_for_training": "false",
        "review_only": "true",
        "interpretation": "Vinculo espacial footprint-patch para avaliacao observacional review-only.",
        "limitations": "sem data explicita extraida; elegibilidade permanece candidata review-only"
      }
    },
    {
      "type": "Feature",
      "geometry": {
        "type": "Point",
        "coordinates": [
          -49.25911860469396,
          -25.50985538340661
        ]
      },
      "properties": {
        "linkage_id": "S16ALINK_000123",
        "footprint_id": "S16AFP_00106",
        "event_id": "S16ALOCG_00106",
        "patch_id": "curitiba_00402",
        "region": "curitiba",
        "event_date": "",
        "footprint_type": "official_flood_footprint",
        "spatial_relation": "footprint_polygon_covers_patch",
        "overlap_ratio": "1.0",
        "distance_m": "",
        "score_v6": "0.404487",
        "score_v6_class": "low",
        "evidence_strength": "moderate_candidate",
        "eligible_for_observational_evaluation": "true",
        "can_be_ground_truth": "false",
        "allowed_for_training": "false",
        "review_only": "true",
        "interpretation": "Vinculo espacial footprint-patch para avaliacao observacional review-only.",
        "limitations": "sem data explicita extraida; elegibilidade permanece candidata review-only"
      }
    },
    {
      "type": "Feature",
      "geometry": {
        "type": "Point",
        "coordinates": [
          -49.19623653480559,
          -25.50985538340661
        ]
      },
      "properties": {
        "linkage_id": "S16ALINK_000124",
        "footprint_id": "S16AFP_00106",
        "event_id": "S16ALOCG_00106",
        "patch_id": "curitiba_00409",
        "region": "curitiba",
        "event_date": "",
        "footprint_type": "official_flood_footprint",
        "spatial_relation": "footprint_polygon_covers_patch",
        "overlap_ratio": "1.0",
        "distance_m": "",
        "score_v6": "0.53338",
        "score_v6_class": "medium",
        "evidence_strength": "moderate_candidate",
        "eligible_for_observational_evaluation": "true",
        "can_be_ground_truth": "false",
        "allowed_for_training": "false",
        "review_only": "true",
        "interpretation": "Vinculo espacial footprint-patch para avaliacao observacional review-only.",
        "limitations": "sem data explicita extraida; elegibilidade permanece candidata review-only"
      }
    },
    {
      "type": "Feature",
      "geometry": {
        "type": "Point",
        "coordinates": [
          -49.187253381964396,
          -25.50985538340661
        ]
      },
      "properties": {
        "linkage_id": "S16ALINK_000125",
        "footprint_id": "S16AFP_00106",
        "event_id": "S16ALOCG_00106",
        "patch_id": "curitiba_00410",
        "region": "curitiba",
        "event_date": "",
        "footprint_type": "official_flood_footprint",
        "spatial_relation": "footprint_polygon_intersects_patch",
        "overlap_ratio": "0.740341",
        "distance_m": "",
        "score_v6": "0.528555",
        "score_v6_class": "medium",
        "evidence_strength": "moderate_candidate",
        "eligible_for_observational_evaluation": "true",
        "can_be_ground_truth": "false",
        "allowed_for_training": "false",
        "review_only": "true",
        "interpretation": "Vinculo espacial footprint-patch para avaliacao observacional review-only.",
        "limitations": "sem data explicita extraida; elegibilidade permanece candidata review-only"
      }
    },
    {
      "type": "Feature",
      "geometry": {
        "type": "Point",
        "coordinates": [
          -49.26810175753516,
          -25.501747713509346
        ]
      },
      "properties": {
        "linkage_id": "S16ALINK_000126",
        "footprint_id": "S16AFP_00106",
        "event_id": "S16ALOCG_00106",
        "patch_id": "curitiba_00436",
        "region": "curitiba",
        "event_date": "",
        "footprint_type": "official_flood_footprint",
        "spatial_relation": "footprint_polygon_covers_patch",
        "overlap_ratio": "1.0",
        "distance_m": "",
        "score_v6": "0.366981",
        "score_v6_class": "low",
        "evidence_strength": "moderate_candidate",
        "eligible_for_observational_evaluation": "true",
        "can_be_ground_truth": "false",
        "allowed_for_training": "false",
        "review_only": "true",
        "interpretation": "Vinculo espacial footprint-patch para avaliacao observacional review-only.",
        "limitations": "sem data explicita extraida; elegibilidade permanece candidata review-only"
      }
    },
    {
      "type": "Feature",
      "geometry": {
        "type": "Point",
        "coordinates": [
          -49.187253381964396,
          -25.501747713509346
        ]
      },
      "properties": {
        "linkage_id": "S16ALINK_000127",
        "footprint_id": "S16AFP_00106",
        "event_id": "S16ALOCG_00106",
        "patch_id": "curitiba_00445",
        "region": "curitiba",
        "event_date": "",
        "footprint_type": "official_flood_footprint",
        "spatial_relation": "footprint_polygon_intersects_patch",
        "overlap_ratio": "0.740341",
        "distance_m": "",
        "score_v6": "0.549597",
        "score_v6_class": "medium",
        "evidence_strength": "moderate_candidate",
        "eligible_for_observational_evaluation": "true",
        "can_be_ground_truth": "false",
        "allowed_for_training": "false",
        "review_only": "true",
        "interpretation": "Vinculo espacial footprint-patch para avaliacao observacional review-only.",
        "limitations": "sem data explicita extraida; elegibilidade permanece candidata review-only"
      }
    },
    {
      "type": "Feature",
      "geometry": {
        "type": "Point",
        "coordinates": [
          -49.31301752174113,
          -25.493639496307612
        ]
      },
      "properties": {
        "linkage_id": "S16ALINK_000128",
        "footprint_id": "S16AFP_00106",
        "event_id": "S16ALOCG_00106",
        "patch_id": "curitiba_00466",
        "region": "curitiba",
        "event_date": "",
        "footprint_type": "official_flood_footprint",
        "spatial_relation": "footprint_polygon_covers_patch",
        "overlap_ratio": "1.0",
        "distance_m": "",
        "score_v6": "0.385586",
        "score_v6_class": "low",
        "evidence_strength": "moderate_candidate",
        "eligible_for_observational_evaluation": "true",
        "can_be_ground_truth": "false",
        "allowed_for_training": "false",
        "review_only": "true",
        "interpretation": "Vinculo espacial footprint-patch para avaliacao observacional review-only.",
        "limitations": "sem data explicita extraida; elegibilidade permanece candidata review-only"
      }
    },
    {
      "type": "Feature",
      "geometry": {
        "type": "Point",
        "coordinates": [
          -49.28606806321754,
          -25.493639496307612
        ]
      },
      "properties": {
        "linkage_id": "S16ALINK_000129",
        "footprint_id": "S16AFP_00106",
        "event_id": "S16ALOCG_00106",
        "patch_id": "curitiba_00469",
        "region": "curitiba",
        "event_date": "",
        "footprint_type": "official_flood_footprint",
        "spatial_relation": "footprint_polygon_covers_patch",
        "overlap_ratio": "1.0",
        "distance_m": "",
        "score_v6": "0.393775",
        "score_v6_class": "low",
        "evidence_strength": "moderate_candidate",
        "eligible_for_observational_evaluation": "true",
        "can_be_ground_truth": "false",
        "allowed_for_training": "false",
        "review_only": "true",
        "interpretation": "Vinculo espacial footprint-patch para avaliacao observacional review-only.",
        "limitations": "sem data explicita extraida; elegibilidade permanece candidata review-only"
      }
    },
    {
      "type": "Feature",
      "geometry": {
        "type": "Point",
        "coordinates": [
          -49.26810175753516,
          -25.493639496307612
        ]
      },
      "properties": {
        "linkage_id": "S16ALINK_000130",
        "footprint_id": "S16AFP_00106",
        "event_id": "S16ALOCG_00106",
        "patch_id": "curitiba_00471",
        "region": "curitiba",
        "event_date": "",
        "footprint_type": "official_flood_footprint",
        "spatial_relation": "footprint_polygon_covers_patch",
        "overlap_ratio": "1.0",
        "distance_m": "",
        "score_v6": "0.373711",
        "score_v6_class": "low",
        "evidence_strength": "moderate_candidate",
        "eligible_for_observational_evaluation": "true",
        "can_be_ground_truth": "false",
        "allowed_for_training": "false",
        "review_only": "true",
        "interpretation": "Vinculo espacial footprint-patch para avaliacao observacional review-only.",
        "limitations": "sem data explicita extraida; elegibilidade permanece candidata review-only"
      }
    },
    {
      "type": "Feature",
      "geometry": {
        "type": "Point",
        "coordinates": [
          -49.35793328594711,
          -25.477421420492583
        ]
      },
      "properties": {
        "linkage_id": "S16ALINK_000131",
        "footprint_id": "S16AFP_00106",
        "event_id": "S16ALOCG_00106",
        "patch_id": "curitiba_00531",
        "region": "curitiba",
        "event_date": "",
        "footprint_type": "official_flood_footprint",
        "spatial_relation": "footprint_polygon_covers_patch",
        "overlap_ratio": "1.0",
        "distance_m": "",
        "score_v6": "0.391929",
        "score_v6_class": "low",
        "evidence_strength": "moderate_candidate",
        "eligible_for_observational_evaluation": "true",
        "can_be_ground_truth": "false",
        "allowed_for_training": "false",
        "review_only": "true",
        "interpretation": "Vinculo espacial footprint-patch para avaliacao observacional review-only.",
        "limitations": "sem data explicita extraida; elegibilidade permanece candidata review-only"
      }
    },
    {
      "type": "Feature",
      "geometry": {
        "type": "Point",
        "coordinates": [
          -49.304034368899934,
          -25.477421420492583
        ]
      },
      "properties": {
        "linkage_id": "S16ALINK_000132",
        "footprint_id": "S16AFP_00106",
        "event_id": "S16ALOCG_00106",
        "patch_id": "curitiba_00537",
        "region": "curitiba",
        "event_date": "",
        "footprint_type": "official_flood_footprint",
        "spatial_relation": "footprint_polygon_covers_patch",
        "overlap_ratio": "1.0",
        "distance_m": "",
        "score_v6": "0.394049",
        "score_v6_class": "low",
        "evidence_strength": "moderate_candidate",
        "eligible_for_observational_evaluation": "true",
        "can_be_ground_truth": "false",
        "allowed_for_training": "false",
        "review_only": "true",
        "interpretation": "Vinculo espacial footprint-patch para avaliacao observacional review-only.",
        "limitations": "sem data explicita extraida; elegibilidade permanece candidata review-only"
      }
    },
    {
      "type": "Feature",
      "geometry": {
        "type": "Point",
        "coordinates": [
          -49.35793328594711,
          -25.46931156213035
        ]
      },
      "properties": {
        "linkage_id": "S16ALINK_000133",
        "footprint_id": "S16AFP_00106",
        "event_id": "S16ALOCG_00106",
        "patch_id": "curitiba_00566",
        "region": "curitiba",
        "event_date": "",
        "footprint_type": "official_flood_footprint",
        "spatial_relation": "footprint_polygon_covers_patch",
        "overlap_ratio": "1.0",
        "distance_m": "",
        "score_v6": "0.413978",
        "score_v6_class": "low",
        "evidence_strength": "moderate_candidate",
        "eligible_for_observational_evaluation": "true",
        "can_be_ground_truth": "false",
        "allowed_for_training": "false",
        "review_only": "true",
        "interpretation": "Vinculo espacial footprint-patch para avaliacao observacional review-only.",
        "limitations": "sem data explicita extraida; elegibilidade permanece candidata review-only"
      }
    },
    {
      "type": "Feature",
      "geometry": {
        "type": "Point",
        "coordinates": [
          -49.39386589731188,
          -25.46120115696573
        ]
      },
      "properties": {
        "linkage_id": "S16ALINK_000134",
        "footprint_id": "S16AFP_00106",
        "event_id": "S16ALOCG_00106",
        "patch_id": "curitiba_00597",
        "region": "curitiba",
        "event_date": "",
        "footprint_type": "official_flood_footprint",
        "spatial_relation": "footprint_polygon_intersects_patch",
        "overlap_ratio": "0.031296",
        "distance_m": "",
        "score_v6": "0.395268",
        "score_v6_class": "low",
        "evidence_strength": "moderate_candidate",
        "eligible_for_observational_evaluation": "true",
        "can_be_ground_truth": "false",
        "allowed_for_training": "false",
        "review_only": "true",
        "interpretation": "Vinculo espacial footprint-patch para avaliacao observacional review-only.",
        "limitations": "sem data explicita extraida; elegibilidade permanece candidata review-only"
      }
    },
    {
      "type": "Feature",
      "geometry": {
        "type": "Point",
        "coordinates": [
          -49.25911860469396,
          -25.46120115696573
        ]
      },
      "properties": {
        "linkage_id": "S16ALINK_000135",
        "footprint_id": "S16AFP_00106",
        "event_id": "S16ALOCG_00106",
        "patch_id": "curitiba_00612",
        "region": "curitiba",
        "event_date": "",
        "footprint_type": "official_flood_footprint",
        "spatial_relation": "footprint_polygon_covers_patch",
        "overlap_ratio": "1.0",
        "distance_m": "",
        "score_v6": "0.385769",
        "score_v6_class": "low",
        "evidence_strength": "moderate_candidate",
        "eligible_for_observational_evaluation": "true",
        "can_be_ground_truth": "false",
        "allowed_for_training": "false",
        "review_only": "true",
        "interpretation": "Vinculo espacial footprint-patch para avaliacao observacional review-only.",
        "limitations": "sem data explicita extraida; elegibilidade permanece candidata review-only"
      }
    },
    {
      "type": "Feature",
      "geometry": {
        "type": "Point",
        "coordinates": [
          -49.3669164387883,
          -25.428754070797417
        ]
      },
      "properties": {
        "linkage_id": "S16ALINK_000136",
        "footprint_id": "S16AFP_00106",
        "event_id": "S16ALOCG_00106",
        "patch_id": "curitiba_00740",
        "region": "curitiba",
        "event_date": "",
        "footprint_type": "official_flood_footprint",
        "spatial_relation": "footprint_polygon_covers_patch",
        "overlap_ratio": "1.0",
        "distance_m": "",
        "score_v6": "0.370482",
        "score_v6_class": "low",
        "evidence_strength": "moderate_candidate",
        "eligible_for_observational_evaluation": "true",
        "can_be_ground_truth": "false",
        "allowed_for_training": "false",
        "review_only": "true",
        "interpretation": "Vinculo espacial footprint-patch para avaliacao observacional review-only.",
        "limitations": "sem data explicita extraida; elegibilidade permanece candidata review-only"
      }
    },
    {
      "type": "Feature",
      "geometry": {
        "type": "Point",
        "coordinates": [
          -49.33098382742352,
          -25.4206409335068
        ]
      },
      "properties": {
        "linkage_id": "S16ALINK_000137",
        "footprint_id": "S16AFP_00106",
        "event_id": "S16ALOCG_00106",
        "patch_id": "curitiba_00779",
        "region": "curitiba",
        "event_date": "",
        "footprint_type": "official_flood_footprint",
        "spatial_relation": "footprint_polygon_covers_patch",
        "overlap_ratio": "1.0",
        "distance_m": "",
        "score_v6": "0.375578",
        "score_v6_class": "low",
        "evidence_strength": "moderate_candidate",
        "eligible_for_observational_evaluation": "true",
        "can_be_ground_truth": "false",
        "allowed_for_training": "false",
        "review_only": "true",
        "interpretation": "Vinculo espacial footprint-patch para avaliacao observacional review-only.",
        "limitations": "sem data explicita extraida; elegibilidade permanece candidata review-only"
      }
    },
    {
      "type": "Feature",
      "geometry": {
        "type": "Point",
        "coordinates": [
          -49.304034368899934,
          -25.39629824585291
        ]
      },
      "properties": {
        "linkage_id": "S16ALINK_000138",
        "footprint_id": "S16AFP_00106",
        "event_id": "S16ALOCG_00106",
        "patch_id": "curitiba_00887",
        "region": "curitiba",
        "event_date": "",
        "footprint_type": "official_flood_footprint",
        "spatial_relation": "footprint_polygon_covers_patch",
        "overlap_ratio": "1.0",
        "distance_m": "",
        "score_v6": "0.610679",
        "score_v6_class": "medium",
        "evidence_strength": "moderate_candidate",
        "eligible_for_observational_evaluation": "true",
        "can_be_ground_truth": "false",
        "allowed_for_training": "false",
        "review_only": "true",
        "interpretation": "Vinculo espacial footprint-patch para avaliacao observacional review-only.",
        "limitations": "sem data explicita extraida; elegibilidade permanece candidata review-only"
      }
    },
    {
      "type": "Feature",
      "geometry": {
        "type": "Point",
        "coordinates": [
          -49.29505121605874,
          -25.39629824585291
        ]
      },
      "properties": {
        "linkage_id": "S16ALINK_000139",
        "footprint_id": "S16AFP_00106",
        "event_id": "S16ALOCG_00106",
        "patch_id": "curitiba_00888",
        "region": "curitiba",
        "event_date": "",
        "footprint_type": "official_flood_footprint",
        "spatial_relation": "footprint_polygon_covers_patch",
        "overlap_ratio": "1.0",
        "distance_m": "",
        "score_v6": "0.430251",
        "score_v6_class": "medium",
        "evidence_strength": "moderate_candidate",
        "eligible_for_observational_evaluation": "true",
        "can_be_ground_truth": "false",
        "allowed_for_training": "false",
        "review_only": "true",
        "interpretation": "Vinculo espacial footprint-patch para avaliacao observacional review-only.",
        "limitations": "sem data explicita extraida; elegibilidade permanece candidata review-only"
      }
    },
    {
      "type": "Feature",
      "geometry": {
        "type": "Point",
        "coordinates": [
          -49.28606806321754,
          -25.39629824585291
        ]
      },
      "properties": {
        "linkage_id": "S16ALINK_000140",
        "footprint_id": "S16AFP_00106",
        "event_id": "S16ALOCG_00106",
        "patch_id": "curitiba_00889",
        "region": "curitiba",
        "event_date": "",
        "footprint_type": "official_flood_footprint",
        "spatial_relation": "footprint_polygon_covers_patch",
        "overlap_ratio": "1.0",
        "distance_m": "",
        "score_v6": "0.427625",
        "score_v6_class": "medium",
        "evidence_strength": "moderate_candidate",
        "eligible_for_observational_evaluation": "true",
        "can_be_ground_truth": "false",
        "allowed_for_training": "false",
        "review_only": "true",
        "interpretation": "Vinculo espacial footprint-patch para avaliacao observacional review-only.",
        "limitations": "sem data explicita extraida; elegibilidade permanece candidata review-only"
      }
    },
    {
      "type": "Feature",
      "geometry": {
        "type": "Point",
        "coordinates": [
          -49.26810175753516,
          -25.39629824585291
        ]
      },
      "properties": {
        "linkage_id": "S16ALINK_000141",
        "footprint_id": "S16AFP_00106",
        "event_id": "S16ALOCG_00106",
        "patch_id": "curitiba_00891",
        "region": "curitiba",
        "event_date": "",
        "footprint_type": "official_flood_footprint",
        "spatial_relation": "footprint_polygon_covers_patch",
        "overlap_ratio": "1.0",
        "distance_m": "",
        "score_v6": "0.619363",
        "score_v6_class": "high",
        "evidence_strength": "moderate_candidate",
        "eligible_for_observational_evaluation": "true",
        "can_be_ground_truth": "false",
        "allowed_for_training": "false",
        "review_only": "true",
        "interpretation": "Vinculo espacial footprint-patch para avaliacao observacional review-only.",
        "limitations": "sem data explicita extraida; elegibilidade permanece candidata review-only"
      }
    },
    {
      "type": "Feature",
      "geometry": {
        "type": "Point",
        "coordinates": [
          -49.23216914617037,
          -25.39629824585291
        ]
      },
      "properties": {
        "linkage_id": "S16ALINK_000142",
        "footprint_id": "S16AFP_00106",
        "event_id": "S16ALOCG_00106",
        "patch_id": "curitiba_00895",
        "region": "curitiba",
        "event_date": "",
        "footprint_type": "official_flood_footprint",
        "spatial_relation": "footprint_polygon_covers_patch",
        "overlap_ratio": "1.0",
        "distance_m": "",
        "score_v6": "0.579199",
        "score_v6_class": "medium",
        "evidence_strength": "moderate_candidate",
        "eligible_for_observational_evaluation": "true",
        "can_be_ground_truth": "false",
        "allowed_for_training": "false",
        "review_only": "true",
        "interpretation": "Vinculo espacial footprint-patch para avaliacao observacional review-only.",
        "limitations": "sem data explicita extraida; elegibilidade permanece candidata review-only"
      }
    },
    {
      "type": "Feature",
      "geometry": {
        "type": "Point",
        "coordinates": [
          -49.22318599332918,
          -25.39629824585291
        ]
      },
      "properties": {
        "linkage_id": "S16ALINK_000143",
        "footprint_id": "S16AFP_00106",
        "event_id": "S16ALOCG_00106",
        "patch_id": "curitiba_00896",
        "region": "curitiba",
        "event_date": "",
        "footprint_type": "official_flood_footprint",
        "spatial_relation": "footprint_polygon_covers_patch",
        "overlap_ratio": "1.0",
        "distance_m": "",
        "score_v6": "0.622455",
        "score_v6_class": "high",
        "evidence_strength": "moderate_candidate",
        "eligible_for_observational_evaluation": "true",
        "can_be_ground_truth": "false",
        "allowed_for_training": "false",
        "review_only": "true",
        "interpretation": "Vinculo espacial footprint-patch para avaliacao observacional review-only.",
        "limitations": "sem data explicita extraida; elegibilidade permanece candidata review-only"
      }
    },
    {
      "type": "Feature",
      "geometry": {
        "type": "Point",
        "coordinates": [
          -49.19623653480559,
          -25.39629824585291
        ]
      },
      "properties": {
        "linkage_id": "S16ALINK_000144",
        "footprint_id": "S16AFP_00106",
        "event_id": "S16ALOCG_00106",
        "patch_id": "curitiba_00899",
        "region": "curitiba",
        "event_date": "",
        "footprint_type": "official_flood_footprint",
        "spatial_relation": "footprint_polygon_covers_patch",
        "overlap_ratio": "1.0",
        "distance_m": "",
        "score_v6": "0.607848",
        "score_v6_class": "medium",
        "evidence_strength": "moderate_candidate",
        "eligible_for_observational_evaluation": "true",
        "can_be_ground_truth": "false",
        "allowed_for_training": "false",
        "review_only": "true",
        "interpretation": "Vinculo espacial footprint-patch para avaliacao observacional review-only.",
        "limitations": "sem data explicita extraida; elegibilidade permanece candidata review-only"
      }
    },
    {
      "type": "Feature",
      "geometry": {
        "type": "Point",
        "coordinates": [
          -49.33996698026472,
          -25.38818292512766
        ]
      },
      "properties": {
        "linkage_id": "S16ALINK_000145",
        "footprint_id": "S16AFP_00106",
        "event_id": "S16ALOCG_00106",
        "patch_id": "curitiba_00918",
        "region": "curitiba",
        "event_date": "",
        "footprint_type": "official_flood_footprint",
        "spatial_relation": "footprint_polygon_covers_patch",
        "overlap_ratio": "1.0",
        "distance_m": "",
        "score_v6": "0.475774",
        "score_v6_class": "medium",
        "evidence_strength": "moderate_candidate",
        "eligible_for_observational_evaluation": "true",
        "can_be_ground_truth": "false",
        "allowed_for_training": "false",
        "review_only": "true",
        "interpretation": "Vinculo espacial footprint-patch para avaliacao observacional review-only.",
        "limitations": "sem data explicita extraida; elegibilidade permanece candidata review-only"
      }
    },
    {
      "type": "Feature",
      "geometry": {
        "type": "Point",
        "coordinates": [
          -49.28606806321754,
          -25.38818292512766
        ]
      },
      "properties": {
        "linkage_id": "S16ALINK_000146",
        "footprint_id": "S16AFP_00106",
        "event_id": "S16ALOCG_00106",
        "patch_id": "curitiba_00924",
        "region": "curitiba",
        "event_date": "",
        "footprint_type": "official_flood_footprint",
        "spatial_relation": "footprint_polygon_covers_patch",
        "overlap_ratio": "1.0",
        "distance_m": "",
        "score_v6": "0.502482",
        "score_v6_class": "medium",
        "evidence_strength": "moderate_candidate",
        "eligible_for_observational_evaluation": "true",
        "can_be_ground_truth": "false",
        "allowed_for_training": "false",
        "review_only": "true",
        "interpretation": "Vinculo espacial footprint-patch para avaliacao observacional review-only.",
        "limitations": "sem data explicita extraida; elegibilidade permanece candidata review-only"
      }
    },
    {
      "type": "Feature",
      "geometry": {
        "type": "Point",
        "coordinates": [
          -49.26810175753516,
          -25.38818292512766
        ]
      },
      "properties": {
        "linkage_id": "S16ALINK_000147",
        "footprint_id": "S16AFP_00106",
        "event_id": "S16ALOCG_00106",
        "patch_id": "curitiba_00926",
        "region": "curitiba",
        "event_date": "",
        "footprint_type": "official_flood_footprint",
        "spatial_relation": "footprint_polygon_covers_patch",
        "overlap_ratio": "1.0",
        "distance_m": "",
        "score_v6": "0.573503",
        "score_v6_class": "medium",
        "evidence_strength": "moderate_candidate",
        "eligible_for_observational_evaluation": "true",
        "can_be_ground_truth": "false",
        "allowed_for_training": "false",
        "review_only": "true",
        "interpretation": "Vinculo espacial footprint-patch para avaliacao observacional review-only.",
        "limitations": "sem data explicita extraida; elegibilidade permanece candidata review-only"
      }
    },
    {
      "type": "Feature",
      "geometry": {
        "type": "Point",
        "coordinates": [
          -49.24115229901157,
          -25.38818292512766
        ]
      },
      "properties": {
        "linkage_id": "S16ALINK_000148",
        "footprint_id": "S16AFP_00106",
        "event_id": "S16ALOCG_00106",
        "patch_id": "curitiba_00929",
        "region": "curitiba",
        "event_date": "",
        "footprint_type": "official_flood_footprint",
        "spatial_relation": "footprint_polygon_covers_patch",
        "overlap_ratio": "1.0",
        "distance_m": "",
        "score_v6": "0.643298",
        "score_v6_class": "high",
        "evidence_strength": "moderate_candidate",
        "eligible_for_observational_evaluation": "true",
        "can_be_ground_truth": "false",
        "allowed_for_training": "false",
        "review_only": "true",
        "interpretation": "Vinculo espacial footprint-patch para avaliacao observacional review-only.",
        "limitations": "sem data explicita extraida; elegibilidade permanece candidata review-only"
      }
    },
    {
      "type": "Feature",
      "geometry": {
        "type": "Point",
        "coordinates": [
          -49.23216914617037,
          -25.38818292512766
        ]
      },
      "properties": {
        "linkage_id": "S16ALINK_000149",
        "footprint_id": "S16AFP_00106",
        "event_id": "S16ALOCG_00106",
        "patch_id": "curitiba_00930",
        "region": "curitiba",
        "event_date": "",
        "footprint_type": "official_flood_footprint",
        "spatial_relation": "footprint_polygon_covers_patch",
        "overlap_ratio": "1.0",
        "distance_m": "",
        "score_v6": "0.623689",
        "score_v6_class": "high",
        "evidence_strength": "moderate_candidate",
        "eligible_for_observational_evaluation": "true",
        "can_be_ground_truth": "false",
        "allowed_for_training": "false",
        "review_only": "true",
        "interpretation": "Vinculo espacial footprint-patch para avaliacao observacional review-only.",
        "limitations": "sem data explicita extraida; elegibilidade permanece candidata review-only"
      }
    },
    {
      "type": "Feature",
      "geometry": {
        "type": "Point",
        "coordinates": [
          -49.22318599332918,
          -25.38818292512766
        ]
      },
      "properties": {
        "linkage_id": "S16ALINK_000150",
        "footprint_id": "S16AFP_00106",
        "event_id": "S16ALOCG_00106",
        "patch_id": "curitiba_00931",
        "region": "curitiba",
        "event_date": "",
        "footprint_type": "official_flood_footprint",
        "spatial_relation": "footprint_polygon_covers_patch",
        "overlap_ratio": "1.0",
        "distance_m": "",
        "score_v6": "0.656853",
        "score_v6_class": "high",
        "evidence_strength": "moderate_candidate",
        "eligible_for_observational_evaluation": "true",
        "can_be_ground_truth": "false",
        "allowed_for_training": "false",
        "review_only": "true",
        "interpretation": "Vinculo espacial footprint-patch para avaliacao observacional review-only.",
        "limitations": "sem data explicita extraida; elegibilidade permanece candidata review-only"
      }
    },
    {
      "type": "Feature",
      "geometry": {
        "type": "Point",
        "coordinates": [
          -49.19623653480559,
          -25.38818292512766
        ]
      },
      "properties": {
        "linkage_id": "S16ALINK_000151",
        "footprint_id": "S16AFP_00106",
        "event_id": "S16ALOCG_00106",
        "patch_id": "curitiba_00934",
        "region": "curitiba",
        "event_date": "",
        "footprint_type": "official_flood_footprint",
        "spatial_relation": "footprint_polygon_covers_patch",
        "overlap_ratio": "1.0",
        "distance_m": "",
        "score_v6": "0.680824",
        "score_v6_class": "high",
        "evidence_strength": "moderate_candidate",
        "eligible_for_observational_evaluation": "true",
        "can_be_ground_truth": "false",
        "allowed_for_training": "false",
        "review_only": "true",
        "interpretation": "Vinculo espacial footprint-patch para avaliacao observacional review-only.",
        "limitations": "sem data explicita extraida; elegibilidade permanece candidata review-only"
      }
    },
    {
      "type": "Feature",
      "geometry": {
        "type": "Point",
        "coordinates": [
          -49.27708491037635,
          -25.380067058858938
        ]
      },
      "properties": {
        "linkage_id": "S16ALINK_000152",
        "footprint_id": "S16AFP_00106",
        "event_id": "S16ALOCG_00106",
        "patch_id": "curitiba_00960",
        "region": "curitiba",
        "event_date": "",
        "footprint_type": "official_flood_footprint",
        "spatial_relation": "footprint_polygon_covers_patch",
        "overlap_ratio": "1.0",
        "distance_m": "",
        "score_v6": "0.449296",
        "score_v6_class": "medium",
        "evidence_strength": "moderate_candidate",
        "eligible_for_observational_evaluation": "true",
        "can_be_ground_truth": "false",
        "allowed_for_training": "false",
        "review_only": "true",
        "interpretation": "Vinculo espacial footprint-patch para avaliacao observacional review-only.",
        "limitations": "sem data explicita extraida; elegibilidade permanece candidata review-only"
      }
    },
    {
      "type": "Feature",
      "geometry": {
        "type": "Point",
        "coordinates": [
          -49.19623653480559,
          -25.380067058858938
        ]
      },
      "properties": {
        "linkage_id": "S16ALINK_000153",
        "footprint_id": "S16AFP_00106",
        "event_id": "S16ALOCG_00106",
        "patch_id": "curitiba_00969",
        "region": "curitiba",
        "event_date": "",
        "footprint_type": "official_flood_footprint",
        "spatial_relation": "footprint_polygon_covers_patch",
        "overlap_ratio": "1.0",
        "distance_m": "",
        "score_v6": "0.638789",
        "score_v6_class": "high",
        "evidence_strength": "moderate_candidate",
        "eligible_for_observational_evaluation": "true",
        "can_be_ground_truth": "false",
        "allowed_for_training": "false",
        "review_only": "true",
        "interpretation": "Vinculo espacial footprint-patch para avaliacao observacional review-only.",
        "limitations": "sem data explicita extraida; elegibilidade permanece candidata review-only"
      }
    },
    {
      "type": "Feature",
      "geometry": {
        "type": "Point",
        "coordinates": [
          -49.32200067458233,
          -25.371950647172905
        ]
      },
      "properties": {
        "linkage_id": "S16ALINK_000154",
        "footprint_id": "S16AFP_00106",
        "event_id": "S16ALOCG_00106",
        "patch_id": "curitiba_00990",
        "region": "curitiba",
        "event_date": "",
        "footprint_type": "official_flood_footprint",
        "spatial_relation": "footprint_polygon_covers_patch",
        "overlap_ratio": "1.0",
        "distance_m": "",
        "score_v6": "0.28079",
        "score_v6_class": "low",
        "evidence_strength": "moderate_candidate",
        "eligible_for_observational_evaluation": "true",
        "can_be_ground_truth": "false",
        "allowed_for_training": "false",
        "review_only": "true",
        "interpretation": "Vinculo espacial footprint-patch para avaliacao observacional review-only.",
        "limitations": "sem data explicita extraida; elegibilidade permanece candidata review-only"
      }
    },
    {
      "type": "Feature",
      "geometry": {
        "type": "Point",
        "coordinates": [
          -49.31301752174113,
          -25.371950647172905
        ]
      },
      "properties": {
        "linkage_id": "S16ALINK_000155",
        "footprint_id": "S16AFP_00106",
        "event_id": "S16ALOCG_00106",
        "patch_id": "curitiba_00991",
        "region": "curitiba",
        "event_date": "",
        "footprint_type": "official_flood_footprint",
        "spatial_relation": "footprint_polygon_covers_patch",
        "overlap_ratio": "1.0",
        "distance_m": "",
        "score_v6": "0.452561",
        "score_v6_class": "medium",
        "evidence_strength": "moderate_candidate",
        "eligible_for_observational_evaluation": "true",
        "can_be_ground_truth": "false",
        "allowed_for_training": "false",
        "review_only": "true",
        "interpretation": "Vinculo espacial footprint-patch para avaliacao observacional review-only.",
        "limitations": "sem data explicita extraida; elegibilidade permanece candidata review-only"
      }
    },
    {
      "type": "Feature",
      "geometry": {
        "type": "Point",
        "coordinates": [
          -49.304034368899934,
          -25.371950647172905
        ]
      },
      "properties": {
        "linkage_id": "S16ALINK_000156",
        "footprint_id": "S16AFP_00106",
        "event_id": "S16ALOCG_00106",
        "patch_id": "curitiba_00992",
        "region": "curitiba",
        "event_date": "",
        "footprint_type": "official_flood_footprint",
        "spatial_relation": "footprint_polygon_covers_patch",
        "overlap_ratio": "1.0",
        "distance_m": "",
        "score_v6": "0.413705",
        "score_v6_class": "low",
        "evidence_strength": "moderate_candidate",
        "eligible_for_observational_evaluation": "true",
        "can_be_ground_truth": "false",
        "allowed_for_training": "false",
        "review_only": "true",
        "interpretation": "Vinculo espacial footprint-patch para avaliacao observacional review-only.",
        "limitations": "sem data explicita extraida; elegibilidade permanece candidata review-only"
      }
    },
    {
      "type": "Feature",
      "geometry": {
        "type": "Point",
        "coordinates": [
          -49.27708491037635,
          -25.371950647172905
        ]
      },
      "properties": {
        "linkage_id": "S16ALINK_000157",
        "footprint_id": "S16AFP_00106",
        "event_id": "S16ALOCG_00106",
        "patch_id": "curitiba_00995",
        "region": "curitiba",
        "event_date": "",
        "footprint_type": "official_flood_footprint",
        "spatial_relation": "footprint_polygon_covers_patch",
        "overlap_ratio": "1.0",
        "distance_m": "",
        "score_v6": "0.413272",
        "score_v6_class": "low",
        "evidence_strength": "moderate_candidate",
        "eligible_for_observational_evaluation": "true",
        "can_be_ground_truth": "false",
        "allowed_for_training": "false",
        "review_only": "true",
        "interpretation": "Vinculo espacial footprint-patch para avaliacao observacional review-only.",
        "limitations": "sem data explicita extraida; elegibilidade permanece candidata review-only"
      }
    },
    {
      "type": "Feature",
      "geometry": {
        "type": "Point",
        "coordinates": [
          -49.23216914617037,
          -25.371950647172905
        ]
      },
      "properties": {
        "linkage_id": "S16ALINK_000158",
        "footprint_id": "S16AFP_00106",
        "event_id": "S16ALOCG_00106",
        "patch_id": "curitiba_01000",
        "region": "curitiba",
        "event_date": "",
        "footprint_type": "official_flood_footprint",
        "spatial_relation": "footprint_polygon_covers_patch",
        "overlap_ratio": "1.0",
        "distance_m": "",
        "score_v6": "0.389483",
        "score_v6_class": "low",
        "evidence_strength": "moderate_candidate",
        "eligible_for_observational_evaluation": "true",
        "can_be_ground_truth": "false",
        "allowed_for_training": "false",
        "review_only": "true",
        "interpretation": "Vinculo espacial footprint-patch para avaliacao observacional review-only.",
        "limitations": "sem data explicita extraida; elegibilidade permanece candidata review-only"
      }
    },
    {
      "type": "Feature",
      "geometry": {
        "type": "Point",
        "coordinates": [
          -49.22318599332918,
          -25.371950647172905
        ]
      },
      "properties": {
        "linkage_id": "S16ALINK_000159",
        "footprint_id": "S16AFP_00106",
        "event_id": "S16ALOCG_00106",
        "patch_id": "curitiba_01001",
        "region": "curitiba",
        "event_date": "",
        "footprint_type": "official_flood_footprint",
        "spatial_relation": "footprint_polygon_covers_patch",
        "overlap_ratio": "1.0",
        "distance_m": "",
        "score_v6": "0.419932",
        "score_v6_class": "low",
        "evidence_strength": "moderate_candidate",
        "eligible_for_observational_evaluation": "true",
        "can_be_ground_truth": "false",
        "allowed_for_training": "false",
        "review_only": "true",
        "interpretation": "Vinculo espacial footprint-patch para avaliacao observacional review-only.",
        "limitations": "sem data explicita extraida; elegibilidade permanece candidata review-only"
      }
    },
    {
      "type": "Feature",
      "geometry": {
        "type": "Point",
        "coordinates": [
          -49.33098382742352,
          -25.3638336901958
        ]
      },
      "properties": {
        "linkage_id": "S16ALINK_000160",
        "footprint_id": "S16AFP_00106",
        "event_id": "S16ALOCG_00106",
        "patch_id": "curitiba_01024",
        "region": "curitiba",
        "event_date": "",
        "footprint_type": "official_flood_footprint",
        "spatial_relation": "footprint_polygon_covers_patch",
        "overlap_ratio": "1.0",
        "distance_m": "",
        "score_v6": "0.254237",
        "score_v6_class": "low",
        "evidence_strength": "moderate_candidate",
        "eligible_for_observational_evaluation": "true",
        "can_be_ground_truth": "false",
        "allowed_for_training": "false",
        "review_only": "true",
        "interpretation": "Vinculo espacial footprint-patch para avaliacao observacional review-only.",
        "limitations": "sem data explicita extraida; elegibilidade permanece candidata review-only"
      }
    },
    {
      "type": "Feature",
      "geometry": {
        "type": "Point",
        "coordinates": [
          -49.27708491037635,
          -25.3638336901958
        ]
      },
      "properties": {
        "linkage_id": "S16ALINK_000161",
        "footprint_id": "S16AFP_00106",
        "event_id": "S16ALOCG_00106",
        "patch_id": "curitiba_01030",
        "region": "curitiba",
        "event_date": "",
        "footprint_type": "official_flood_footprint",
        "spatial_relation": "footprint_polygon_covers_patch",
        "overlap_ratio": "1.0",
        "distance_m": "",
        "score_v6": "0.46613",
        "score_v6_class": "medium",
        "evidence_strength": "moderate_candidate",
        "eligible_for_observational_evaluation": "true",
        "can_be_ground_truth": "false",
        "allowed_for_training": "false",
        "review_only": "true",
        "interpretation": "Vinculo espacial footprint-patch para avaliacao observacional review-only.",
        "limitations": "sem data explicita extraida; elegibilidade permanece candidata review-only"
      }
    },
    {
      "type": "Feature",
      "geometry": {
        "type": "Point",
        "coordinates": [
          -49.187253381964396,
          -25.3638336901958
        ]
      },
      "properties": {
        "linkage_id": "S16ALINK_000162",
        "footprint_id": "S16AFP_00106",
        "event_id": "S16ALOCG_00106",
        "patch_id": "curitiba_01040",
        "region": "curitiba",
        "event_date": "",
        "footprint_type": "official_flood_footprint",
        "spatial_relation": "footprint_polygon_intersects_patch",
        "overlap_ratio": "0.740341",
        "distance_m": "",
        "score_v6": "0.410074",
        "score_v6_class": "low",
        "evidence_strength": "moderate_candidate",
        "eligible_for_observational_evaluation": "true",
        "can_be_ground_truth": "false",
        "allowed_for_training": "false",
        "review_only": "true",
        "interpretation": "Vinculo espacial footprint-patch para avaliacao observacional review-only.",
        "limitations": "sem data explicita extraida; elegibilidade permanece candidata review-only"
      }
    },
    {
      "type": "Feature",
      "geometry": {
        "type": "Point",
        "coordinates": [
          -49.33098382742352,
          -25.355716188053915
        ]
      },
      "properties": {
        "linkage_id": "S16ALINK_000163",
        "footprint_id": "S16AFP_00106",
        "event_id": "S16ALOCG_00106",
        "patch_id": "curitiba_01059",
        "region": "curitiba",
        "event_date": "",
        "footprint_type": "official_flood_footprint",
        "spatial_relation": "footprint_polygon_covers_patch",
        "overlap_ratio": "1.0",
        "distance_m": "",
        "score_v6": "0.25532",
        "score_v6_class": "low",
        "evidence_strength": "moderate_candidate",
        "eligible_for_observational_evaluation": "true",
        "can_be_ground_truth": "false",
        "allowed_for_training": "false",
        "review_only": "true",
        "interpretation": "Vinculo espacial footprint-patch para avaliacao observacional review-only.",
        "limitations": "sem data explicita extraida; elegibilidade permanece candidata review-only"
      }
    },
    {
      "type": "Feature",
      "geometry": {
        "type": "Point",
        "coordinates": [
          -49.32200067458233,
          -25.355716188053915
        ]
      },
      "properties": {
        "linkage_id": "S16ALINK_000164",
        "footprint_id": "S16AFP_00106",
        "event_id": "S16ALOCG_00106",
        "patch_id": "curitiba_01060",
        "region": "curitiba",
        "event_date": "",
        "footprint_type": "official_flood_footprint",
        "spatial_relation": "footprint_polygon_covers_patch",
        "overlap_ratio": "1.0",
        "distance_m": "",
        "score_v6": "0.241676",
        "score_v6_class": "low",
        "evidence_strength": "moderate_candidate",
        "eligible_for_observational_evaluation": "true",
        "can_be_ground_truth": "false",
        "allowed_for_training": "false",
        "review_only": "true",
        "interpretation": "Vinculo espacial footprint-patch para avaliacao observacional review-only.",
        "limitations": "sem data explicita extraida; elegibilidade permanece candidata review-only"
      }
    },
    {
      "type": "Feature",
      "geometry": {
        "type": "Point",
        "coordinates": [
          -49.27708491037635,
          -25.355716188053915
        ]
      },
      "properties": {
        "linkage_id": "S16ALINK_000165",
        "footprint_id": "S16AFP_00106",
        "event_id": "S16ALOCG_00106",
        "patch_id": "curitiba_01065",
        "region": "curitiba",
        "event_date": "",
        "footprint_type": "official_flood_footprint",
        "spatial_relation": "footprint_polygon_covers_patch",
        "overlap_ratio": "1.0",
        "distance_m": "",
        "score_v6": "0.452768",
        "score_v6_class": "medium",
        "evidence_strength": "moderate_candidate",
        "eligible_for_observational_evaluation": "true",
        "can_be_ground_truth": "false",
        "allowed_for_training": "false",
        "review_only": "true",
        "interpretation": "Vinculo espacial footprint-patch para avaliacao observacional review-only.",
        "limitations": "sem data explicita extraida; elegibilidade permanece candidata review-only"
      }
    },
    {
      "type": "Feature",
      "geometry": {
        "type": "Point",
        "coordinates": [
          -49.25013545185276,
          -25.355716188053915
        ]
      },
      "properties": {
        "linkage_id": "S16ALINK_000166",
        "footprint_id": "S16AFP_00106",
        "event_id": "S16ALOCG_00106",
        "patch_id": "curitiba_01068",
        "region": "curitiba",
        "event_date": "",
        "footprint_type": "official_flood_footprint",
        "spatial_relation": "footprint_polygon_covers_patch",
        "overlap_ratio": "1.0",
        "distance_m": "",
        "score_v6": "0.288658",
        "score_v6_class": "low",
        "evidence_strength": "moderate_candidate",
        "eligible_for_observational_evaluation": "true",
        "can_be_ground_truth": "false",
        "allowed_for_training": "false",
        "review_only": "true",
        "interpretation": "Vinculo espacial footprint-patch para avaliacao observacional review-only.",
        "limitations": "sem data explicita extraida; elegibilidade permanece candidata review-only"
      }
    },
    {
      "type": "Feature",
      "geometry": {
        "type": "Point",
        "coordinates": [
          -49.187253381964396,
          -25.355716188053915
        ]
      },
      "properties": {
        "linkage_id": "S16ALINK_000167",
        "footprint_id": "S16AFP_00106",
        "event_id": "S16ALOCG_00106",
        "patch_id": "curitiba_01075",
        "region": "curitiba",
        "event_date": "",
        "footprint_type": "official_flood_footprint",
        "spatial_relation": "footprint_polygon_intersects_patch",
        "overlap_ratio": "0.740341",
        "distance_m": "",
        "score_v6": "0.452731",
        "score_v6_class": "medium",
        "evidence_strength": "moderate_candidate",
        "eligible_for_observational_evaluation": "true",
        "can_be_ground_truth": "false",
        "allowed_for_training": "false",
        "review_only": "true",
        "interpretation": "Vinculo espacial footprint-patch para avaliacao observacional review-only.",
        "limitations": "sem data explicita extraida; elegibilidade permanece candidata review-only"
      }
    },
    {
      "type": "Feature",
      "geometry": {
        "type": "Point",
        "coordinates": [
          -49.26810175753516,
          -25.347598140873565
        ]
      },
      "properties": {
        "linkage_id": "S16ALINK_000168",
        "footprint_id": "S16AFP_00106",
        "event_id": "S16ALOCG_00106",
        "patch_id": "curitiba_01101",
        "region": "curitiba",
        "event_date": "",
        "footprint_type": "official_flood_footprint",
        "spatial_relation": "footprint_polygon_intersects_patch",
        "overlap_ratio": "0.77378",
        "distance_m": "",
        "score_v6": "0.357789",
        "score_v6_class": "low",
        "evidence_strength": "moderate_candidate",
        "eligible_for_observational_evaluation": "true",
        "can_be_ground_truth": "false",
        "allowed_for_training": "false",
        "review_only": "true",
        "interpretation": "Vinculo espacial footprint-patch para avaliacao observacional review-only.",
        "limitations": "sem data explicita extraida; elegibilidade permanece candidata review-only"
      }
    },
    {
      "type": "Feature",
      "geometry": {
        "type": "Point",
        "coordinates": [
          -49.19623653480559,
          -25.347598140873565
        ]
      },
      "properties": {
        "linkage_id": "S16ALINK_000169",
        "footprint_id": "S16AFP_00106",
        "event_id": "S16ALOCG_00106",
        "patch_id": "curitiba_01109",
        "region": "curitiba",
        "event_date": "",
        "footprint_type": "official_flood_footprint",
        "spatial_relation": "footprint_polygon_intersects_patch",
        "overlap_ratio": "0.77378",
        "distance_m": "",
        "score_v6": "0.449818",
        "score_v6_class": "medium",
        "evidence_strength": "moderate_candidate",
        "eligible_for_observational_evaluation": "true",
        "can_be_ground_truth": "false",
        "allowed_for_training": "false",
        "review_only": "true",
        "interpretation": "Vinculo espacial footprint-patch para avaliacao observacional review-only.",
        "limitations": "sem data explicita extraida; elegibilidade permanece candidata review-only"
      }
    }
  ],
  "review_only": true,
  "can_be_ground_truth": false,
  "allowed_for_training": false
}
