{
  "type": "FeatureCollection",
  "metadata": {
    "milestone": "SUSC-17C6",
    "candidate_grid_id": "S17C6_CANARY_GRID_RECIFE_CHARTER758_V1",
    "source_event_id": "REC_2022_05_24_30",
    "source_reference_candidate_id": "S17C4_REF_REC_2022_05_24_30",
    "crs": "EPSG:4326",
    "official_patch_created": false,
    "review_only": true,
    "trainable": false,
    "ground_truth": false,
    "feature_count": 5
  },
  "features": [
    {
      "type": "Feature",
      "geometry": {
        "type": "Polygon",
        "coordinates": [
          [
            [
              -34.944464634,
              -8.00476035
            ],
            [
              -34.935481481000004,
              -8.00476035
            ],
            [
              -34.935481481000004,
              -7.9958667640000005
            ],
            [
              -34.944464634,
              -7.9958667640000005
            ],
            [
              -34.944464634,
              -8.00476035
            ]
          ]
        ]
      },
      "properties": {
        "candidate_patch_id": "S17C6_CANARY_REC_00001",
        "candidate_grid_id": "S17C6_CANARY_GRID_RECIFE_CHARTER758_V1",
        "region": "Recife",
        "source_event_id": "REC_2022_05_24_30",
        "source_reference_candidate_id": "S17C4_REF_REC_2022_05_24_30",
        "xmin": "-34.944464634",
        "ymin": "-8.00476035",
        "xmax": "-34.935481481",
        "ymax": "-7.995866764",
        "crs": "EPSG:4326",
        "generation_method": "aligned_to_susc_recife_mean_patch_step_from_charter758_geometry",
        "intersects_reference_geometry": "true",
        "overlap_ratio_patch": "0.002522",
        "overlap_ratio_reference": "0.256706",
        "distance_to_reference_m": "0",
        "nearest_official_patch_id": "recife_00552",
        "nearest_official_patch_distance_m": "984.4",
        "official_patch": "false",
        "review_only": "true",
        "trainable": "false",
        "ground_truth": "false",
        "not_official_patch_reason": "candidate_patch_for_multimodal_canary_only_not_in_official_susc_grid"
      }
    },
    {
      "type": "Feature",
      "geometry": {
        "type": "Polygon",
        "coordinates": [
          [
            [
              -34.944464634,
              -7.9958667640000005
            ],
            [
              -34.935481481000004,
              -7.9958667640000005
            ],
            [
              -34.935481481000004,
              -7.986973178
            ],
            [
              -34.944464634,
              -7.986973178
            ],
            [
              -34.944464634,
              -7.9958667640000005
            ]
          ]
        ]
      },
      "properties": {
        "candidate_patch_id": "S17C6_CANARY_REC_00002",
        "candidate_grid_id": "S17C6_CANARY_GRID_RECIFE_CHARTER758_V1",
        "region": "Recife",
        "source_event_id": "REC_2022_05_24_30",
        "source_reference_candidate_id": "S17C4_REF_REC_2022_05_24_30",
        "xmin": "-34.944464634",
        "ymin": "-7.995866764",
        "xmax": "-34.935481481",
        "ymax": "-7.986973178",
        "crs": "EPSG:4326",
        "generation_method": "aligned_to_susc_recife_mean_patch_step_from_charter758_geometry",
        "intersects_reference_geometry": "true",
        "overlap_ratio_patch": "0.002924",
        "overlap_ratio_reference": "0.297695",
        "distance_to_reference_m": "0",
        "nearest_official_patch_id": "recife_00552",
        "nearest_official_patch_distance_m": "1967.5",
        "official_patch": "false",
        "review_only": "true",
        "trainable": "false",
        "ground_truth": "false",
        "not_official_patch_reason": "candidate_patch_for_multimodal_canary_only_not_in_official_susc_grid"
      }
    },
    {
      "type": "Feature",
      "geometry": {
        "type": "Polygon",
        "coordinates": [
          [
            [
              -34.926498328,
              -7.9958667640000005
            ],
            [
              -34.917515175,
              -7.9958667640000005
            ],
            [
              -34.917515175,
              -7.986973178
            ],
            [
              -34.926498328,
              -7.986973178
            ],
            [
              -34.926498328,
              -7.9958667640000005
            ]
          ]
        ]
      },
      "properties": {
        "candidate_patch_id": "S17C6_CANARY_REC_00003",
        "candidate_grid_id": "S17C6_CANARY_GRID_RECIFE_CHARTER758_V1",
        "region": "Recife",
        "source_event_id": "REC_2022_05_24_30",
        "source_reference_candidate_id": "S17C4_REF_REC_2022_05_24_30",
        "xmin": "-34.926498328",
        "ymin": "-7.995866764",
        "xmax": "-34.917515175",
        "ymax": "-7.986973178",
        "crs": "EPSG:4326",
        "generation_method": "aligned_to_susc_recife_mean_patch_step_from_charter758_geometry",
        "intersects_reference_geometry": "true",
        "overlap_ratio_patch": "0.00243",
        "overlap_ratio_reference": "0.247375",
        "distance_to_reference_m": "0",
        "nearest_official_patch_id": "recife_00552",
        "nearest_official_patch_distance_m": "2791.7",
        "official_patch": "false",
        "review_only": "true",
        "trainable": "false",
        "ground_truth": "false",
        "not_official_patch_reason": "candidate_patch_for_multimodal_canary_only_not_in_official_susc_grid"
      }
    },
    {
      "type": "Feature",
      "geometry": {
        "type": "Polygon",
        "coordinates": [
          [
            [
              -34.935481481000004,
              -7.986973178
            ],
            [
              -34.926498328,
              -7.986973178
            ],
            [
              -34.926498328,
              -7.978079592
            ],
            [
              -34.935481481000004,
              -7.978079592
            ],
            [
              -34.935481481000004,
              -7.986973178
            ]
          ]
        ]
      },
      "properties": {
        "candidate_patch_id": "S17C6_CANARY_REC_00004",
        "candidate_grid_id": "S17C6_CANARY_GRID_RECIFE_CHARTER758_V1",
        "region": "Recife",
        "source_event_id": "REC_2022_05_24_30",
        "source_reference_candidate_id": "S17C4_REF_REC_2022_05_24_30",
        "xmin": "-34.935481481",
        "ymin": "-7.986973178",
        "xmax": "-34.926498328",
        "ymax": "-7.978079592",
        "crs": "EPSG:4326",
        "generation_method": "aligned_to_susc_recife_mean_patch_step_from_charter758_geometry",
        "intersects_reference_geometry": "true",
        "overlap_ratio_patch": "0.00121",
        "overlap_ratio_reference": "0.12321",
        "distance_to_reference_m": "0",
        "nearest_official_patch_id": "recife_00552",
        "nearest_official_patch_distance_m": "3112.4",
        "official_patch": "false",
        "review_only": "true",
        "trainable": "false",
        "ground_truth": "false",
        "not_official_patch_reason": "candidate_patch_for_multimodal_canary_only_not_in_official_susc_grid"
      }
    },
    {
      "type": "Feature",
      "geometry": {
        "type": "Polygon",
        "coordinates": [
          [
            [
              -34.926498328,
              -7.986973178
            ],
            [
              -34.917515175,
              -7.986973178
            ],
            [
              -34.917515175,
              -7.978079592
            ],
            [
              -34.926498328,
              -7.978079592
            ],
            [
              -34.926498328,
              -7.986973178
            ]
          ]
        ]
      },
      "properties": {
        "candidate_patch_id": "S17C6_CANARY_REC_00005",
        "candidate_grid_id": "S17C6_CANARY_GRID_RECIFE_CHARTER758_V1",
        "region": "Recife",
        "source_event_id": "REC_2022_05_24_30",
        "source_reference_candidate_id": "S17C4_REF_REC_2022_05_24_30",
        "xmin": "-34.926498328",
        "ymin": "-7.986973178",
        "xmax": "-34.917515175",
        "ymax": "-7.978079592",
        "crs": "EPSG:4326",
        "generation_method": "aligned_to_susc_recife_mean_patch_step_from_charter758_geometry",
        "intersects_reference_geometry": "true",
        "overlap_ratio_patch": "0.000737",
        "overlap_ratio_reference": "0.075014",
        "distance_to_reference_m": "0",
        "nearest_official_patch_id": "recife_00552",
        "nearest_official_patch_distance_m": "3553.7",
        "official_patch": "false",
        "review_only": "true",
        "trainable": "false",
        "ground_truth": "false",
        "not_official_patch_reason": "candidate_patch_for_multimodal_canary_only_not_in_official_susc_grid"
      }
    }
  ]
}
