{
  "type": "FeatureCollection",
  "name": "susc_14b_event_patch_linkage",
  "review_only": true,
  "can_be_ground_truth": false,
  "can_be_used_as_ground_truth": false,
  "allowed_for_training": false,
  "features": [
    {
      "type": "Feature",
      "geometry": {
        "type": "Point",
        "coordinates": [
          -34.966922,
          -8.071482
        ]
      },
      "properties": {
        "linkage_id": "S14BLINK_000153",
        "matched_id": "S14BMATCH_000153",
        "occurrence_id": "S14AOCC_000153",
        "patch_id": "recife_00412",
        "region": "recife",
        "event_date": "2014-01-30",
        "evidence_level": "moderate_official_occurrence_geocoded",
        "georeferencing_status": "official_address_point_match",
        "matched_feature_type": "address_point",
        "spatial_relation": "moderate_street_segment_near_patch",
        "distance_m": 589.0,
        "patch_score_v6": "0.579576",
        "patch_score_class_v6": "medium",
        "linkage_confidence": "moderate",
        "can_be_used_for_observational_evaluation": "true",
        "can_be_ground_truth": "false",
        "can_be_used_as_ground_truth": "false",
        "allowed_for_training": "false",
        "review_only": "true",
        "requires_manual_review": "true",
        "interpretation": "Referencia oficial intersecta ou esta proxima ao patch.",
        "limitations": "Vinculo moderado review-only; nao e ground truth."
      }
    },
    {
      "type": "Feature",
      "geometry": {
        "type": "Point",
        "coordinates": [
          -34.957939,
          -8.071482
        ]
      },
      "properties": {
        "linkage_id": "S14BLINK_000154",
        "matched_id": "S14BMATCH_000153",
        "occurrence_id": "S14AOCC_000153",
        "patch_id": "recife_00413",
        "region": "recife",
        "event_date": "2014-01-30",
        "evidence_level": "moderate_official_occurrence_geocoded",
        "georeferencing_status": "official_address_point_match",
        "matched_feature_type": "address_point",
        "spatial_relation": "moderate_street_segment_near_patch",
        "distance_m": 1011.1,
        "patch_score_v6": "0.556138",
        "patch_score_class_v6": "medium",
        "linkage_confidence": "moderate",
        "can_be_used_for_observational_evaluation": "true",
        "can_be_ground_truth": "false",
        "can_be_used_as_ground_truth": "false",
        "allowed_for_training": "false",
        "review_only": "true",
        "requires_manual_review": "true",
        "interpretation": "Referencia oficial intersecta ou esta proxima ao patch.",
        "limitations": "Vinculo moderado review-only; nao e ground truth."
      }
    },
    {
      "type": "Feature",
      "geometry": {
        "type": "Point",
        "coordinates": [
          -34.966922,
          -8.071482
        ]
      },
      "properties": {
        "linkage_id": "S14BLINK_000420",
        "matched_id": "S14BMATCH_000419",
        "occurrence_id": "S14AOCC_000419",
        "patch_id": "recife_00412",
        "region": "recife",
        "event_date": "2014-03-27",
        "evidence_level": "moderate_official_occurrence_geocoded",
        "georeferencing_status": "official_address_point_match",
        "matched_feature_type": "address_point",
        "spatial_relation": "moderate_street_segment_near_patch",
        "distance_m": 589.0,
        "patch_score_v6": "0.579576",
        "patch_score_class_v6": "medium",
        "linkage_confidence": "moderate",
        "can_be_used_for_observational_evaluation": "true",
        "can_be_ground_truth": "false",
        "can_be_used_as_ground_truth": "false",
        "allowed_for_training": "false",
        "review_only": "true",
        "requires_manual_review": "true",
        "interpretation": "Referencia oficial intersecta ou esta proxima ao patch.",
        "limitations": "Vinculo moderado review-only; nao e ground truth."
      }
    },
    {
      "type": "Feature",
      "geometry": {
        "type": "Point",
        "coordinates": [
          -34.957939,
          -8.071482
        ]
      },
      "properties": {
        "linkage_id": "S14BLINK_000421",
        "matched_id": "S14BMATCH_000419",
        "occurrence_id": "S14AOCC_000419",
        "patch_id": "recife_00413",
        "region": "recife",
        "event_date": "2014-03-27",
        "evidence_level": "moderate_official_occurrence_geocoded",
        "georeferencing_status": "official_address_point_match",
        "matched_feature_type": "address_point",
        "spatial_relation": "moderate_street_segment_near_patch",
        "distance_m": 1011.1,
        "patch_score_v6": "0.556138",
        "patch_score_class_v6": "medium",
        "linkage_confidence": "moderate",
        "can_be_used_for_observational_evaluation": "true",
        "can_be_ground_truth": "false",
        "can_be_used_as_ground_truth": "false",
        "allowed_for_training": "false",
        "review_only": "true",
        "requires_manual_review": "true",
        "interpretation": "Referencia oficial intersecta ou esta proxima ao patch.",
        "limitations": "Vinculo moderado review-only; nao e ground truth."
      }
    }
  ]
}
