{
  "type": "FeatureCollection",
  "name": "susc_17c33_event_anchored_patches",
  "crs": {
    "type": "name",
    "properties": {
      "name": "urn:ogc:def:crs:OGC:1.3:CRS84"
    }
  },
  "features": [
    {
      "type": "Feature",
      "properties": {
        "event_anchored_canary_patch_id": "S17C33_EAC_0001",
        "namespace": "event_anchored_canary_patch",
        "bairro": "Pina",
        "logradouro": "Avenida Republica do Libano",
        "occurrence_date": "Imveis Alagados",
        "uncertainty_m": "800",
        "distance_to_original_patch_m": "11031.8",
        "is_ground_truth": "false",
        "review_only": "true"
      },
      "geometry": {
        "type": "Polygon",
        "coordinates": [
          [
            [
              -34.8983542,
              -8.0941571
            ],
            [
              -34.8838368,
              -8.0941571
            ],
            [
              -34.8838368,
              -8.0796827
            ],
            [
              -34.8983542,
              -8.0796827
            ],
            [
              -34.8983542,
              -8.0941571
            ]
          ]
        ]
      }
    },
    {
      "type": "Feature",
      "properties": {
        "event_anchored_canary_patch_id": "S17C33_EAC_0001",
        "role": "center_point",
        "review_only": "true"
      },
      "geometry": {
        "type": "Point",
        "coordinates": [
          -34.8910955,
          -8.0869199
        ]
      }
    },
    {
      "type": "Feature",
      "properties": {
        "event_anchored_canary_patch_id": "S17C33_EAC_0002",
        "namespace": "event_anchored_canary_patch",
        "bairro": "Imbiribeira",
        "logradouro": "Rua Joao Murilo de Oliveira",
        "occurrence_date": "Imveis Alagados",
        "uncertainty_m": "800",
        "distance_to_original_patch_m": "12641.9",
        "is_ground_truth": "false",
        "review_only": "true"
      },
      "geometry": {
        "type": "Polygon",
        "coordinates": [
          [
            [
              -34.9121208,
              -8.1157963
            ],
            [
              -34.8976026,
              -8.1157963
            ],
            [
              -34.8976026,
              -8.1013219
            ],
            [
              -34.9121208,
              -8.1013219
            ],
            [
              -34.9121208,
              -8.1157963
            ]
          ]
        ]
      }
    },
    {
      "type": "Feature",
      "properties": {
        "event_anchored_canary_patch_id": "S17C33_EAC_0002",
        "role": "center_point",
        "review_only": "true"
      },
      "geometry": {
        "type": "Point",
        "coordinates": [
          -34.9048617,
          -8.1085591
        ]
      }
    },
    {
      "type": "Feature",
      "properties": {
        "event_anchored_canary_patch_id": "S17C33_EAC_0003",
        "namespace": "event_anchored_canary_patch",
        "bairro": "Afogados",
        "logradouro": "Rua Vicente Ribeiro de Barros",
        "occurrence_date": "Imveis Alagados",
        "uncertainty_m": "800",
        "distance_to_original_patch_m": "9161.4",
        "is_ground_truth": "false",
        "review_only": "true"
      },
      "geometry": {
        "type": "Polygon",
        "coordinates": [
          [
            [
              -34.9270954,
              -8.0874923
            ],
            [
              -34.9125782,
              -8.0874923
            ],
            [
              -34.9125782,
              -8.0730179
            ],
            [
              -34.9270954,
              -8.0730179
            ],
            [
              -34.9270954,
              -8.0874923
            ]
          ]
        ]
      }
    },
    {
      "type": "Feature",
      "properties": {
        "event_anchored_canary_patch_id": "S17C33_EAC_0003",
        "role": "center_point",
        "review_only": "true"
      },
      "geometry": {
        "type": "Point",
        "coordinates": [
          -34.9198368,
          -8.0802551
        ]
      }
    },
    {
      "type": "Feature",
      "properties": {
        "event_anchored_canary_patch_id": "S17C33_EAC_0004",
        "namespace": "event_anchored_canary_patch",
        "bairro": "Areias",
        "logradouro": "Rua Joao Paulo Ii",
        "occurrence_date": "Imveis Alagados",
        "uncertainty_m": "800",
        "distance_to_original_patch_m": "11520.2",
        "is_ground_truth": "false",
        "review_only": "true"
      },
      "geometry": {
        "type": "Polygon",
        "coordinates": [
          [
            [
              -34.9451544,
              -8.1111339
            ],
            [
              -34.9306364,
              -8.1111339
            ],
            [
              -34.9306364,
              -8.0966595
            ],
            [
              -34.9451544,
              -8.0966595
            ],
            [
              -34.9451544,
              -8.1111339
            ]
          ]
        ]
      }
    },
    {
      "type": "Feature",
      "properties": {
        "event_anchored_canary_patch_id": "S17C33_EAC_0004",
        "role": "center_point",
        "review_only": "true"
      },
      "geometry": {
        "type": "Point",
        "coordinates": [
          -34.9378954,
          -8.1038967
        ]
      }
    },
    {
      "type": "Feature",
      "properties": {
        "event_anchored_canary_patch_id": "S17C33_EAC_0005",
        "namespace": "event_anchored_canary_patch",
        "bairro": "Areias",
        "logradouro": "Rua Jose Firmino Pires",
        "occurrence_date": "Imveis Alagados",
        "uncertainty_m": "800",
        "distance_to_original_patch_m": "11311.4",
        "is_ground_truth": "false",
        "review_only": "true"
      },
      "geometry": {
        "type": "Polygon",
        "coordinates": [
          [
            [
              -34.9461663,
              -8.109271
            ],
            [
              -34.9316485,
              -8.109271
            ],
            [
              -34.9316485,
              -8.0947966
            ],
            [
              -34.9461663,
              -8.0947966
            ],
            [
              -34.9461663,
              -8.109271
            ]
          ]
        ]
      }
    },
    {
      "type": "Feature",
      "properties": {
        "event_anchored_canary_patch_id": "S17C33_EAC_0005",
        "role": "center_point",
        "review_only": "true"
      },
      "geometry": {
        "type": "Point",
        "coordinates": [
          -34.9389074,
          -8.1020338
        ]
      }
    },
    {
      "type": "Feature",
      "properties": {
        "event_anchored_canary_patch_id": "S17C33_EAC_0006",
        "namespace": "event_anchored_canary_patch",
        "bairro": "Ipsep",
        "logradouro": "Rua Alvorada",
        "occurrence_date": "Imveis Alagados",
        "uncertainty_m": "800",
        "distance_to_original_patch_m": "11993.9",
        "is_ground_truth": "false",
        "review_only": "true"
      },
      "geometry": {
        "type": "Polygon",
        "coordinates": [
          [
            [
              -34.932851,
              -8.1144703
            ],
            [
              -34.918333,
              -8.1144703
            ],
            [
              -34.918333,
              -8.0999959
            ],
            [
              -34.932851,
              -8.0999959
            ],
            [
              -34.932851,
              -8.1144703
            ]
          ]
        ]
      }
    },
    {
      "type": "Feature",
      "properties": {
        "event_anchored_canary_patch_id": "S17C33_EAC_0006",
        "role": "center_point",
        "review_only": "true"
      },
      "geometry": {
        "type": "Point",
        "coordinates": [
          -34.925592,
          -8.1072331
        ]
      }
    },
    {
      "type": "Feature",
      "properties": {
        "event_anchored_canary_patch_id": "S17C33_EAC_0007",
        "namespace": "event_anchored_canary_patch",
        "bairro": "Iputinga",
        "logradouro": "Estrada do Barbalho",
        "occurrence_date": "Imveis Alagados",
        "uncertainty_m": "800",
        "distance_to_original_patch_m": "4189.2",
        "is_ground_truth": "false",
        "review_only": "true"
      },
      "geometry": {
        "type": "Polygon",
        "coordinates": [
          [
            [
              -34.9480342,
              -8.0452169
            ],
            [
              -34.9335186,
              -8.0452169
            ],
            [
              -34.9335186,
              -8.0307425
            ],
            [
              -34.9480342,
              -8.0307425
            ],
            [
              -34.9480342,
              -8.0452169
            ]
          ]
        ]
      }
    },
    {
      "type": "Feature",
      "properties": {
        "event_anchored_canary_patch_id": "S17C33_EAC_0007",
        "role": "center_point",
        "review_only": "true"
      },
      "geometry": {
        "type": "Point",
        "coordinates": [
          -34.9407764,
          -8.0379797
        ]
      }
    },
    {
      "type": "Feature",
      "properties": {
        "event_anchored_canary_patch_id": "S17C33_EAC_0008",
        "namespace": "event_anchored_canary_patch",
        "bairro": "Iputinga",
        "logradouro": "Rua Luiz Souto Dourado",
        "occurrence_date": "Imveis Alagados",
        "uncertainty_m": "800",
        "distance_to_original_patch_m": "3142.1",
        "is_ground_truth": "false",
        "review_only": "true"
      },
      "geometry": {
        "type": "Polygon",
        "coordinates": [
          [
            [
              -34.9483019,
              -8.0357885
            ],
            [
              -34.9337867,
              -8.0357885
            ],
            [
              -34.9337867,
              -8.0213141
            ],
            [
              -34.9483019,
              -8.0213141
            ],
            [
              -34.9483019,
              -8.0357885
            ]
          ]
        ]
      }
    },
    {
      "type": "Feature",
      "properties": {
        "event_anchored_canary_patch_id": "S17C33_EAC_0008",
        "role": "center_point",
        "review_only": "true"
      },
      "geometry": {
        "type": "Point",
        "coordinates": [
          -34.9410443,
          -8.0285513
        ]
      }
    },
    {
      "type": "Feature",
      "properties": {
        "event_anchored_canary_patch_id": "S17C33_EAC_0009",
        "namespace": "event_anchored_canary_patch",
        "bairro": "Varzea",
        "logradouro": "Avenida Melvin Jones",
        "occurrence_date": "Imveis Alagados",
        "uncertainty_m": "800",
        "distance_to_original_patch_m": "4075.2",
        "is_ground_truth": "false",
        "review_only": "true"
      },
      "geometry": {
        "type": "Polygon",
        "coordinates": [
          [
            [
              -34.9633898,
              -8.0405223
            ],
            [
              -34.9488744,
              -8.0405223
            ],
            [
              -34.9488744,
              -8.0260479
            ],
            [
              -34.9633898,
              -8.0260479
            ],
            [
              -34.9633898,
              -8.0405223
            ]
          ]
        ]
      }
    },
    {
      "type": "Feature",
      "properties": {
        "event_anchored_canary_patch_id": "S17C33_EAC_0009",
        "role": "center_point",
        "review_only": "true"
      },
      "geometry": {
        "type": "Point",
        "coordinates": [
          -34.9561321,
          -8.0332851
        ]
      }
    },
    {
      "type": "Feature",
      "properties": {
        "event_anchored_canary_patch_id": "S17C33_EAC_0010",
        "namespace": "event_anchored_canary_patch",
        "bairro": "Varzea",
        "logradouro": "Rua Pe Henrique",
        "occurrence_date": "Imveis Alagados",
        "uncertainty_m": "800",
        "distance_to_original_patch_m": "5765.2",
        "is_ground_truth": "false",
        "review_only": "true"
      },
      "geometry": {
        "type": "Polygon",
        "coordinates": [
          [
            [
              -34.9690127,
              -8.0546998
            ],
            [
              -34.9544967,
              -8.0546998
            ],
            [
              -34.9544967,
              -8.0402254
            ],
            [
              -34.9690127,
              -8.0402254
            ],
            [
              -34.9690127,
              -8.0546998
            ]
          ]
        ]
      }
    },
    {
      "type": "Feature",
      "properties": {
        "event_anchored_canary_patch_id": "S17C33_EAC_0010",
        "role": "center_point",
        "review_only": "true"
      },
      "geometry": {
        "type": "Point",
        "coordinates": [
          -34.9617547,
          -8.0474626
        ]
      }
    },
    {
      "type": "Feature",
      "properties": {
        "event_anchored_canary_patch_id": "S17C33_EAC_0011",
        "namespace": "event_anchored_canary_patch",
        "bairro": "Varzea",
        "logradouro": "Rua Torres Homem",
        "occurrence_date": "Imveis Alagados",
        "uncertainty_m": "800",
        "distance_to_original_patch_m": "4786.1",
        "is_ground_truth": "false",
        "review_only": "true"
      },
      "geometry": {
        "type": "Polygon",
        "coordinates": [
          [
            [
              -34.9622413,
              -8.0479452
            ],
            [
              -34.9477257,
              -8.0479452
            ],
            [
              -34.9477257,
              -8.0334708
            ],
            [
              -34.9622413,
              -8.0334708
            ],
            [
              -34.9622413,
              -8.0479452
            ]
          ]
        ]
      }
    },
    {
      "type": "Feature",
      "properties": {
        "event_anchored_canary_patch_id": "S17C33_EAC_0011",
        "role": "center_point",
        "review_only": "true"
      },
      "geometry": {
        "type": "Point",
        "coordinates": [
          -34.9549835,
          -8.040708
        ]
      }
    }
  ]
}
